{"type":"FeatureCollection","bbox":[70,10,142,56],"metadata":{"source":"Natural Earth 1:10m","commit":"ca96624a56bd078437bca8184e78163e5039ad19","modernBackgroundOnly":true,"labelPlacement":"Derived from actual source geometry; no hand-written coordinates.","editorialTranslations":"Common river names translated for display by this project; nameEn and sourceName preserve original fields.","sourceManifest":"natural-geography-sources.json"},"features":[{"type":"Feature","id":"river-changjiang","properties":{"name":"长江","nameEn":"Yangtze","kind":"river","minZoom":2.8,"nameOrigin":"editorial-translation","sourceName":"Chang Jiang","sourceDataset":"ne_10m_rivers_lake_centerlines","sourceFeatureIndices":[289,301],"sourceId":18,"coordinateMethod":"midpoint-by-planar-length-of-longest-merged-source-line-after-bbox-clipping"},"geometry":{"type":"Point","coordinates":[108.251728,30.483795]}},{"type":"Feature","id":"river-huanghe","properties":{"name":"黄河","nameEn":"Huang","kind":"river","minZoom":2.8,"nameOrigin":"editorial-translation","sourceName":"Huang","sourceDataset":"ne_10m_rivers_lake_centerlines","sourceFeatureIndices":[954,1326],"sourceId":66,"coordinateMethod":"midpoint-by-planar-length-of-longest-merged-source-line-after-bbox-clipping"},"geometry":{"type":"Point","coordinates":[106.284618,38.239748]}},{"type":"Feature","id":"river-hanjiang","properties":{"name":"汉江","nameEn":"Han","kind":"river","minZoom":4.2,"nameOrigin":"editorial-translation","sourceName":"Han","sourceDataset":"ne_10m_rivers_lake_centerlines","sourceFeatureIndices":[412],"sourceId":270,"coordinateMethod":"midpoint-by-planar-length-of-longest-merged-source-line-after-bbox-clipping"},"geometry":{"type":"Point","coordinates":[112.636283,30.852782]}},{"type":"Feature","id":"river-huaihe","properties":{"name":"淮河","nameEn":"Huai","kind":"river","minZoom":4.2,"nameOrigin":"editorial-translation","sourceName":"Huai","sourceDataset":"ne_10m_rivers_lake_centerlines","sourceFeatureIndices":[683],"sourceId":458,"coordinateMethod":"midpoint-by-planar-length-of-longest-merged-source-line-after-bbox-clipping"},"geometry":{"type":"Point","coordinates":[114.56205,32.303939]}},{"type":"Feature","id":"river-weihe","properties":{"name":"渭河","nameEn":"Wei","kind":"river","minZoom":4.0,"nameOrigin":"editorial-translation","sourceName":"Wei","sourceDataset":"ne_10m_rivers_lake_centerlines","sourceFeatureIndices":[1228],"sourceId":873,"coordinateMethod":"midpoint-by-planar-length-of-longest-merged-source-line-after-bbox-clipping"},"geometry":{"type":"Point","coordinates":[107.135068,34.362782]}},{"type":"Feature","id":"river-jinghe","properties":{"name":"泾河","nameEn":"Jing","kind":"river","minZoom":5.3,"nameOrigin":"editorial-translation","sourceName":"Jing","sourceDataset":"ne_10m_rivers_lake_centerlines","sourceFeatureIndices":[1238],"sourceId":882,"coordinateMethod":"midpoint-by-planar-length-of-longest-merged-source-line-after-bbox-clipping"},"geometry":{"type":"Point","coordinates":[107.91793,35.267425]}},{"type":"Feature","id":"river-fenhe","properties":{"name":"汾河","nameEn":"Fen","kind":"river","minZoom":5.0,"nameOrigin":"editorial-translation","sourceName":"Fen","sourceDataset":"ne_10m_rivers_lake_centerlines","sourceFeatureIndices":[90],"sourceId":1070,"coordinateMethod":"midpoint-by-planar-length-of-longest-merged-source-line-after-bbox-clipping"},"geometry":{"type":"Point","coordinates":[111.973017,37.141446]}},{"type":"Feature","id":"river-qinhe","properties":{"name":"沁河","nameEn":"Qin","kind":"river","minZoom":5.6,"nameOrigin":"editorial-translation","sourceName":"Qin","sourceDataset":"ne_10m_rivers_lake_centerlines","sourceFeatureIndices":[1241],"sourceId":885,"coordinateMethod":"midpoint-by-planar-length-of-longest-merged-source-line-after-bbox-clipping"},"geometry":{"type":"Point","coordinates":[112.519816,35.49854]}},{"type":"Feature","id":"river-ganjiang","properties":{"name":"赣江","nameEn":"Gan","kind":"river","minZoom":4.8,"nameOrigin":"editorial-translation","sourceName":"Gan","sourceDataset":"ne_10m_rivers_lake_centerlines","sourceFeatureIndices":[426],"sourceId":278,"coordinateMethod":"midpoint-by-planar-length-of-longest-merged-source-line-after-bbox-clipping"},"geometry":{"type":"Point","coordinates":[114.898121,26.787133]}},{"type":"Feature","id":"river-xiangjiang","properties":{"name":"湘江","nameEn":"Xiang","kind":"river","minZoom":4.8,"nameOrigin":"editorial-translation","sourceName":"Xiang","sourceDataset":"ne_10m_rivers_lake_centerlines","sourceFeatureIndices":[682],"sourceId":457,"coordinateMethod":"midpoint-by-planar-length-of-longest-merged-source-line-after-bbox-clipping"},"geometry":{"type":"Point","coordinates":[112.587847,26.775569]}},{"type":"Feature","id":"river-yuanjiang","properties":{"name":"沅江","nameEn":"Yuan","kind":"river","minZoom":5.2,"nameOrigin":"editorial-translation","sourceName":"Yuan","sourceDataset":"ne_10m_rivers_lake_centerlines","sourceFeatureIndices":[364],"sourceId":247,"coordinateMethod":"midpoint-by-planar-length-of-longest-merged-source-line-after-bbox-clipping"},"geometry":{"type":"Point","coordinates":[110.071668,27.252345]}},{"type":"Feature","id":"river-jialingjiang","properties":{"name":"嘉陵江","nameEn":"Jialing","kind":"river","minZoom":4.6,"nameOrigin":"editorial-translation","sourceName":"Jialing","sourceDataset":"ne_10m_rivers_lake_centerlines","sourceFeatureIndices":[775],"sourceId":538,"coordinateMethod":"midpoint-by-planar-length-of-longest-merged-source-line-after-bbox-clipping"},"geometry":{"type":"Point","coordinates":[105.984613,31.585967]}},{"type":"Feature","id":"river-daduhe","properties":{"name":"大渡河","nameEn":"Dadu","kind":"river","minZoom":5.1,"nameOrigin":"editorial-translation","sourceName":"Dadu","sourceDataset":"ne_10m_rivers_lake_centerlines","sourceFeatureIndices":[465],"sourceId":309,"coordinateMethod":"midpoint-by-planar-length-of-longest-merged-source-line-after-bbox-clipping"},"geometry":{"type":"Point","coordinates":[101.959924,30.797826]}},{"type":"Feature","id":"river-minjiang-sichuan","properties":{"name":"岷江","nameEn":"Min","kind":"river","minZoom":5.0,"nameOrigin":"editorial-translation","sourceName":"Min","sourceDataset":"ne_10m_rivers_lake_centerlines","sourceFeatureIndices":[531],"sourceId":367,"coordinateMethod":"midpoint-by-planar-length-of-longest-merged-source-line-after-bbox-clipping"},"geometry":{"type":"Point","coordinates":[104.08125,29.086449]}},{"type":"Feature","id":"river-yalongjiang","properties":{"name":"雅砻江","nameEn":"Yalong","kind":"river","minZoom":5.0,"nameOrigin":"editorial-translation","sourceName":"Yalong","sourceDataset":"ne_10m_rivers_lake_centerlines","sourceFeatureIndices":[778],"sourceId":540,"coordinateMethod":"midpoint-by-planar-length-of-longest-merged-source-line-after-bbox-clipping"},"geometry":{"type":"Point","coordinates":[100.433181,30.472723]}},{"type":"Feature","id":"river-wujiang","properties":{"name":"乌江","nameEn":"Wu","kind":"river","minZoom":5.2,"nameOrigin":"editorial-translation","sourceName":"Wu","sourceDataset":"ne_10m_rivers_lake_centerlines","sourceFeatureIndices":[681],"sourceId":456,"coordinateMethod":"midpoint-by-planar-length-of-longest-merged-source-line-after-bbox-clipping"},"geometry":{"type":"Point","coordinates":[108.228649,28.258609]}},{"type":"Feature","id":"river-songhuajiang","properties":{"name":"松花江","nameEn":"Sungari","kind":"river","minZoom":4.0,"nameOrigin":"editorial-translation","sourceName":"Songhua","sourceDataset":"ne_10m_rivers_lake_centerlines","sourceFeatureIndices":[530],"sourceId":366,"coordinateMethod":"midpoint-by-planar-length-of-longest-merged-source-line-after-bbox-clipping"},"geometry":{"type":"Point","coordinates":[127.526797,45.963524]}},{"type":"Feature","id":"river-nenjiang","properties":{"name":"嫩江","nameEn":"Nen","kind":"river","minZoom":5.0,"nameOrigin":"editorial-translation","sourceName":"Nen","sourceDataset":"ne_10m_rivers_lake_centerlines","sourceFeatureIndices":[1306],"sourceId":940,"coordinateMethod":"midpoint-by-planar-length-of-longest-merged-source-line-after-bbox-clipping"},"geometry":{"type":"Point","coordinates":[125.000555,49.164624]}},{"type":"Feature","id":"river-heilongjiang","properties":{"name":"黑龙江","nameEn":"Amur","kind":"river","minZoom":3.6,"nameOrigin":"editorial-translation","sourceName":"Heilong Jiang","sourceDataset":"ne_10m_rivers_lake_centerlines","sourceFeatureIndices":[1305],"sourceId":93,"coordinateMethod":"midpoint-by-planar-length-of-longest-merged-source-line-after-bbox-clipping"},"geometry":{"type":"Point","coordinates":[125.728874,52.893676]}},{"type":"Feature","id":"river-liaohe","properties":{"name":"辽河","nameEn":"Liao","kind":"river","minZoom":4.8,"nameOrigin":"editorial-translation","sourceName":"Liao","sourceDataset":"ne_10m_rivers_lake_centerlines","sourceFeatureIndices":[362],"sourceId":246,"coordinateMethod":"midpoint-by-planar-length-of-longest-merged-source-line-after-bbox-clipping"},"geometry":{"type":"Point","coordinates":[123.073385,42.107757]}},{"type":"Feature","id":"river-haihe","properties":{"name":"海河","nameEn":"Hai","kind":"river","minZoom":5.0,"nameOrigin":"editorial-translation","sourceName":"Hai","sourceDataset":"ne_10m_rivers_lake_centerlines","sourceFeatureIndices":[882],"sourceId":631,"coordinateMethod":"midpoint-by-planar-length-of-longest-merged-source-line-after-bbox-clipping"},"geometry":{"type":"Point","coordinates":[117.31898,39.058988]}},{"type":"Feature","id":"river-yongdinghe","properties":{"name":"永定河","nameEn":"Yongding","kind":"river","minZoom":5.8,"nameOrigin":"editorial-translation","sourceName":"Yongding","sourceDataset":"ne_10m_rivers_lake_centerlines","sourceFeatureIndices":[855],"sourceId":609,"coordinateMethod":"midpoint-by-planar-length-of-longest-merged-source-line-after-bbox-clipping"},"geometry":{"type":"Point","coordinates":[116.220431,39.708218]}},{"type":"Feature","id":"river-luanhe","properties":{"name":"滦河","nameEn":"Luan","kind":"river","minZoom":5.5,"nameOrigin":"editorial-translation","sourceName":"Luan","sourceDataset":"ne_10m_rivers_lake_centerlines","sourceFeatureIndices":[1269],"sourceId":908,"coordinateMethod":"midpoint-by-planar-length-of-longest-merged-source-line-after-bbox-clipping"},"geometry":{"type":"Point","coordinates":[118.016693,40.851372]}},{"type":"Feature","id":"river-xijiang","properties":{"name":"西江","nameEn":"Xi","kind":"river","minZoom":4.4,"nameOrigin":"editorial-translation","sourceName":"Xi","sourceDataset":"ne_10m_rivers_lake_centerlines","sourceFeatureIndices":[1337],"sourceId":96,"coordinateMethod":"midpoint-by-planar-length-of-longest-merged-source-line-after-bbox-clipping"},"geometry":{"type":"Point","coordinates":[112.334755,23.156614]}},{"type":"Feature","id":"river-beijiang","properties":{"name":"北江","nameEn":"Bei","kind":"river","minZoom":5.6,"nameOrigin":"editorial-translation","sourceName":"Bei","sourceDataset":"ne_10m_rivers_lake_centerlines","sourceFeatureIndices":[791],"sourceId":552,"coordinateMethod":"midpoint-by-planar-length-of-longest-merged-source-line-after-bbox-clipping"},"geometry":{"type":"Point","coordinates":[113.55337,24.484764]}},{"type":"Feature","id":"river-dongjiang","properties":{"name":"东江","nameEn":"Dong","kind":"river","minZoom":5.5,"nameOrigin":"editorial-translation","sourceName":"Dong","sourceDataset":"ne_10m_rivers_lake_centerlines","sourceFeatureIndices":[776],"sourceId":539,"coordinateMethod":"midpoint-by-planar-length-of-longest-merged-source-line-after-bbox-clipping"},"geometry":{"type":"Point","coordinates":[114.843892,23.843571]}},{"type":"Feature","id":"river-minjiang-fujian","properties":{"name":"闽江","nameEn":"Min","kind":"river","minZoom":5.0,"nameOrigin":"editorial-translation","sourceName":"Min","sourceDataset":"ne_10m_rivers_lake_centerlines","sourceFeatureIndices":[700],"sourceId":473,"coordinateMethod":"midpoint-by-planar-length-of-longest-merged-source-line-after-bbox-clipping"},"geometry":{"type":"Point","coordinates":[117.997227,26.71785]}},{"type":"Feature","id":"river-fuchunjiang","properties":{"name":"富春江","nameEn":"Fuchun","kind":"river","minZoom":5.1,"nameOrigin":"editorial-translation","sourceName":"Fuchun","sourceDataset":"ne_10m_rivers_lake_centerlines","sourceFeatureIndices":[557],"sourceId":385,"coordinateMethod":"midpoint-by-planar-length-of-longest-merged-source-line-after-bbox-clipping"},"geometry":{"type":"Point","coordinates":[119.696142,29.823137]}},{"type":"Feature","id":"river-tarim","properties":{"name":"塔里木河","nameEn":"Tarim","kind":"river","minZoom":3.8,"nameOrigin":"editorial-translation","sourceName":"Tarim","sourceDataset":"ne_10m_rivers_lake_centerlines","sourceFeatureIndices":[511],"sourceId":349,"coordinateMethod":"midpoint-by-planar-length-of-longest-merged-source-line-after-bbox-clipping"},"geometry":{"type":"Point","coordinates":[84.74373,41.178134]}},{"type":"Feature","id":"river-yarlung","properties":{"name":"雅鲁藏布江","nameEn":"Brahmaputra","kind":"river","minZoom":3.5,"nameOrigin":"editorial-translation","sourceName":"Yarlung","sourceDataset":"ne_10m_rivers_lake_centerlines","sourceFeatureIndices":[651],"sourceId":42,"coordinateMethod":"midpoint-by-planar-length-of-longest-merged-source-line-after-bbox-clipping"},"geometry":{"type":"Point","coordinates":[91.043055,29.317972]}},{"type":"Feature","id":"river-lancang","properties":{"name":"澜沧江","nameEn":"Mekong","kind":"river","minZoom":4.0,"nameOrigin":"editorial-translation","sourceName":"Lancang","sourceDataset":"ne_10m_rivers_lake_centerlines","sourceFeatureIndices":[609],"sourceId":40,"coordinateMethod":"midpoint-by-planar-length-of-longest-merged-source-line-after-bbox-clipping"},"geometry":{"type":"Point","coordinates":[100.15975,23.555054]}},{"type":"Feature","id":"river-nujiang","properties":{"name":"怒江","nameEn":"Nu","kind":"river","minZoom":4.6,"nameOrigin":"editorial-translation","sourceName":"Nu","sourceDataset":"ne_10m_rivers_lake_centerlines","sourceFeatureIndices":[222],"sourceId":146,"coordinateMethod":"midpoint-by-planar-length-of-longest-merged-source-line-after-bbox-clipping"},"geometry":{"type":"Point","coordinates":[98.863234,25.309017]}},{"type":"Feature","id":"lake-ne_10m_lakes-473","properties":{"name":"巴尔喀什湖","nameEn":"Balkhash","kind":"lake","minZoom":3.7,"nameOrigin":"natural-earth-name_zh","sourceName":"Lake Balkhash","sourceDataset":"ne_10m_lakes","sourceFeatureIndices":[473],"sourceId":1159113111,"coordinateMethod":"interior-representative-point-of-source-polygon-after-bbox-clipping"},"geometry":{"type":"Point","coordinates":[73.953668,45.902961]}},{"type":"Feature","id":"lake-ne_10m_lakes-474","properties":{"name":"贝加尔湖","nameEn":"Baikal","kind":"lake","minZoom":3.4,"nameOrigin":"natural-earth-name_zh","sourceName":"Lake Baikal","sourceDataset":"ne_10m_lakes","sourceFeatureIndices":[474],"sourceId":1159113127,"coordinateMethod":"interior-representative-point-of-source-polygon-after-bbox-clipping"},"geometry":{"type":"Point","coordinates":[108.158668,53.63105]}},{"type":"Feature","id":"lake-ne_10m_lakes-488","properties":{"name":"洪泽湖","nameEn":"Hongze Lake","kind":"lake","minZoom":4.7,"nameOrigin":"natural-earth-name_zh","sourceName":"Hongze Hu","sourceDataset":"ne_10m_lakes","sourceFeatureIndices":[488],"sourceId":1159113359,"coordinateMethod":"interior-representative-point-of-source-polygon-after-bbox-clipping"},"geometry":{"type":"Point","coordinates":[118.569171,33.257226]}},{"type":"Feature","id":"lake-ne_10m_lakes-492","properties":{"name":"兴凯湖","nameEn":"Khanka","kind":"lake","minZoom":4.5,"nameOrigin":"natural-earth-name_zh","sourceName":"Lake Khanka","sourceDataset":"ne_10m_lakes","sourceFeatureIndices":[492],"sourceId":1159113423,"coordinateMethod":"interior-representative-point-of-source-polygon-after-bbox-clipping"},"geometry":{"type":"Point","coordinates":[132.432513,44.936858]}},{"type":"Feature","id":"lake-ne_10m_lakes-498","properties":{"name":"呼倫湖","nameEn":"Hulun","kind":"lake","minZoom":4.6,"nameOrigin":"natural-earth-name_zh","sourceName":"Hulun Nuur","sourceDataset":"ne_10m_lakes","sourceFeatureIndices":[498],"sourceId":1159113513,"coordinateMethod":"interior-representative-point-of-source-polygon-after-bbox-clipping"},"geometry":{"type":"Point","coordinates":[117.400697,48.960816]}},{"type":"Feature","id":"lake-ne_10m_lakes-504","properties":{"name":"太湖","nameEn":"Tai","kind":"lake","minZoom":4.5,"nameOrigin":"natural-earth-name_zh","sourceName":"Tai Hu","sourceDataset":"ne_10m_lakes","sourceFeatureIndices":[504],"sourceId":1159113611,"coordinateMethod":"interior-representative-point-of-source-polygon-after-bbox-clipping"},"geometry":{"type":"Point","coordinates":[120.137632,31.237299]}},{"type":"Feature","id":"lake-ne_10m_lakes-506","properties":{"name":"纳木错","nameEn":"Namtso","kind":"lake","minZoom":4.5,"nameOrigin":"natural-earth-name_zh","sourceName":"Nam Co","sourceDataset":"ne_10m_lakes","sourceFeatureIndices":[506],"sourceId":1159113637,"coordinateMethod":"interior-representative-point-of-source-polygon-after-bbox-clipping"},"geometry":{"type":"Point","coordinates":[90.581986,30.7254]}},{"type":"Feature","id":"lake-ne_10m_lakes-524","properties":{"name":"博斯腾湖","nameEn":"Bosten","kind":"lake","minZoom":4.5,"nameOrigin":"natural-earth-name_zh","sourceName":"Bosten Hu","sourceDataset":"ne_10m_lakes","sourceFeatureIndices":[524],"sourceId":1159113927,"coordinateMethod":"interior-representative-point-of-source-polygon-after-bbox-clipping"},"geometry":{"type":"Point","coordinates":[87.063781,41.978793]}},{"type":"Feature","id":"lake-ne_10m_lakes-529","properties":{"name":"鄱阳湖","nameEn":"Poyang","kind":"lake","minZoom":4.4,"nameOrigin":"natural-earth-name_zh","sourceName":"Poyang Hu","sourceDataset":"ne_10m_lakes","sourceFeatureIndices":[529],"sourceId":1159114015,"coordinateMethod":"interior-representative-point-of-source-polygon-after-bbox-clipping"},"geometry":{"type":"Point","coordinates":[116.059911,29.263441]}},{"type":"Feature","id":"lake-ne_10m_lakes-533","properties":{"name":"色林错","nameEn":"Siling","kind":"lake","minZoom":4.6,"nameOrigin":"natural-earth-name_zh","sourceName":"Siling Co","sourceDataset":"ne_10m_lakes","sourceFeatureIndices":[533],"sourceId":1159114083,"coordinateMethod":"interior-representative-point-of-source-polygon-after-bbox-clipping"},"geometry":{"type":"Point","coordinates":[88.94459,31.748904]}},{"type":"Feature","id":"lake-ne_10m_lakes-546","properties":{"name":"高邮湖","nameEn":"Gaoyou","kind":"lake","minZoom":5.8,"nameOrigin":"natural-earth-name_zh","sourceName":"Gaoyou Hu","sourceDataset":"ne_10m_lakes","sourceFeatureIndices":[546],"sourceId":1159114321,"coordinateMethod":"interior-representative-point-of-source-polygon-after-bbox-clipping"},"geometry":{"type":"Point","coordinates":[119.334977,32.946524]}},{"type":"Feature","id":"lake-ne_10m_lakes-558","properties":{"name":"玛旁雍错","nameEn":"Manasarovar","kind":"lake","minZoom":5.5,"nameOrigin":"natural-earth-name_zh","sourceName":"Mapam Yumco","sourceDataset":"ne_10m_lakes","sourceFeatureIndices":[558],"sourceId":1159114553,"coordinateMethod":"interior-representative-point-of-source-polygon-after-bbox-clipping"},"geometry":{"type":"Point","coordinates":[81.481946,30.673003]}},{"type":"Feature","id":"lake-ne_10m_lakes-577","properties":{"name":"羊卓雍错","nameEn":"Yamdrok","kind":"lake","minZoom":5.5,"nameOrigin":"natural-earth-name_zh","sourceName":"Yamzho Yumco","sourceDataset":"ne_10m_lakes","sourceFeatureIndices":[577],"sourceId":1159114885,"coordinateMethod":"interior-representative-point-of-source-polygon-after-bbox-clipping"},"geometry":{"type":"Point","coordinates":[90.896847,28.989387]}},{"type":"Feature","id":"lake-ne_10m_lakes-584","properties":{"name":"洪湖","nameEn":"Hong","kind":"lake","minZoom":5.6,"nameOrigin":"natural-earth-name_zh","sourceName":"Hong Hu","sourceDataset":"ne_10m_lakes","sourceFeatureIndices":[584],"sourceId":1159115027,"coordinateMethod":"interior-representative-point-of-source-polygon-after-bbox-clipping"},"geometry":{"type":"Point","coordinates":[113.284708,29.848784]}},{"type":"Feature","id":"lake-ne_10m_lakes-586","properties":{"name":"巢湖","nameEn":"Chao","kind":"lake","minZoom":5.3,"nameOrigin":"natural-earth-name_zh","sourceName":"Chao Hu","sourceDataset":"ne_10m_lakes","sourceFeatureIndices":[586],"sourceId":1159115069,"coordinateMethod":"interior-representative-point-of-source-polygon-after-bbox-clipping"},"geometry":{"type":"Point","coordinates":[117.41674,31.581705]}},{"type":"Feature","id":"lake-ne_10m_lakes-591","properties":{"name":"微山湖","nameEn":"Nansi","kind":"lake","minZoom":5.5,"nameOrigin":"natural-earth-name_zh","sourceName":"Weishan Hu","sourceDataset":"ne_10m_lakes","sourceFeatureIndices":[591],"sourceId":1159115165,"coordinateMethod":"interior-representative-point-of-source-polygon-after-bbox-clipping"},"geometry":{"type":"Point","coordinates":[117.234642,34.619838]}},{"type":"Feature","id":"lake-ne_10m_lakes-650","properties":{"name":"洞庭湖","nameEn":"Dongting","kind":"lake","minZoom":4.4,"nameOrigin":"natural-earth-name_zh","sourceName":"Dongting Hu","sourceDataset":"ne_10m_lakes","sourceFeatureIndices":[650],"sourceId":1159116351,"coordinateMethod":"interior-representative-point-of-source-polygon-after-bbox-clipping"},"geometry":{"type":"Point","coordinates":[112.166821,28.920212]}},{"type":"Feature","id":"lake-ne_10m_lakes-1290","properties":{"name":"伊塞克湖","nameEn":"Issyk-Kul","kind":"lake","minZoom":4.5,"nameOrigin":"natural-earth-name_zh","sourceName":"Issyk-Kul","sourceDataset":"ne_10m_lakes","sourceFeatureIndices":[1290],"sourceId":1159126655,"coordinateMethod":"interior-representative-point-of-source-polygon-after-bbox-clipping"},"geometry":{"type":"Point","coordinates":[77.03582,42.448892]}},{"type":"Feature","id":"lake-ne_10m_lakes-1294","properties":{"name":"烏布蘇湖","nameEn":"Uvs","kind":"lake","minZoom":5.1,"nameOrigin":"natural-earth-name_zh","sourceName":"Uvs Nuur","sourceDataset":"ne_10m_lakes","sourceFeatureIndices":[1294],"sourceId":1159126709,"coordinateMethod":"interior-representative-point-of-source-polygon-after-bbox-clipping"},"geometry":{"type":"Point","coordinates":[92.768622,50.339618]}},{"type":"Feature","id":"lake-ne_10m_lakes-1295","properties":{"name":"青海湖","nameEn":"Qinghai","kind":"lake","minZoom":3.5,"nameOrigin":"natural-earth-name_zh","sourceName":"Qinghai Hu","sourceDataset":"ne_10m_lakes","sourceFeatureIndices":[1295],"sourceId":1159126725,"coordinateMethod":"interior-representative-point-of-source-polygon-after-bbox-clipping"},"geometry":{"type":"Point","coordinates":[100.113266,36.878788]}},{"type":"Feature","id":"mountain-ne_10m_geography_regions_polys-425","properties":{"name":"阴山","nameEn":"Yin Mountains","kind":"mountain","minZoom":4.5,"nameOrigin":"natural-earth-name_zh","sourceName":"Yin Mts.","sourceDataset":"ne_10m_geography_regions_polys","sourceFeatureIndices":[425],"sourceId":1730072653,"coordinateMethod":"interior-representative-point-of-source-polygon-after-bbox-clipping"},"geometry":{"type":"Point","coordinates":[108.659176,41.611365]}},{"type":"Feature","id":"mountain-ne_10m_geography_regions_polys-429","properties":{"name":"太行山","nameEn":"Taihang Mountains","kind":"mountain","minZoom":4.2,"nameOrigin":"natural-earth-name_zh","sourceName":"Taihang Mts.","sourceDataset":"ne_10m_geography_regions_polys","sourceFeatureIndices":[429],"sourceId":1159103569,"coordinateMethod":"interior-representative-point-of-source-polygon-after-bbox-clipping"},"geometry":{"type":"Point","coordinates":[113.740596,38.642493]}},{"type":"Feature","id":"mountain-ne_10m_geography_regions_polys-430","properties":{"name":"吕梁山","nameEn":"Lüliang Mountains","kind":"mountain","minZoom":5.0,"nameOrigin":"natural-earth-name_zh","sourceName":"Lüliang Mts.","sourceDataset":"ne_10m_geography_regions_polys","sourceFeatureIndices":[430],"sourceId":1159103571,"coordinateMethod":"interior-representative-point-of-source-polygon-after-bbox-clipping"},"geometry":{"type":"Point","coordinates":[112.061438,37.821082]}},{"type":"Feature","id":"mountain-ne_10m_geography_regions_polys-431","properties":{"name":"秦岭","nameEn":"Qinling","kind":"mountain","minZoom":3.6,"nameOrigin":"natural-earth-name_zh","sourceName":"Qinling Mountains","sourceDataset":"ne_10m_geography_regions_polys","sourceFeatureIndices":[431],"sourceId":1159103573,"coordinateMethod":"interior-representative-point-of-source-polygon-after-bbox-clipping"},"geometry":{"type":"Point","coordinates":[109.266924,33.724128]}},{"type":"Feature","id":"mountain-ne_10m_geography_regions_polys-546","properties":{"name":"小兴安岭","nameEn":"Lesser Khingan","kind":"mountain","minZoom":5.0,"nameOrigin":"natural-earth-name_zh","sourceName":"Lesser Khingan Range","sourceDataset":"ne_10m_geography_regions_polys","sourceFeatureIndices":[546],"sourceId":1159103895,"coordinateMethod":"interior-representative-point-of-source-polygon-after-bbox-clipping"},"geometry":{"type":"Point","coordinates":[128.114996,49.032904]}},{"type":"Feature","id":"mountain-ne_10m_geography_regions_polys-550","properties":{"name":"祁连山","nameEn":"Qilian Mountains","kind":"mountain","minZoom":3.8,"nameOrigin":"natural-earth-name_zh","sourceName":"QUILIAN MOUNTAINS","sourceDataset":"ne_10m_geography_regions_polys","sourceFeatureIndices":[550],"sourceId":1159103903,"coordinateMethod":"interior-representative-point-of-source-polygon-after-bbox-clipping"},"geometry":{"type":"Point","coordinates":[99.050678,38.024939]}},{"type":"Feature","id":"mountain-ne_10m_geography_regions_polys-553","properties":{"name":"大别山","nameEn":"Dabie Mountains","kind":"mountain","minZoom":5.2,"nameOrigin":"natural-earth-name_zh","sourceName":"Dabie Mts.","sourceDataset":"ne_10m_geography_regions_polys","sourceFeatureIndices":[553],"sourceId":1159103911,"coordinateMethod":"interior-representative-point-of-source-polygon-after-bbox-clipping"},"geometry":{"type":"Point","coordinates":[115.157568,31.30799]}},{"type":"Feature","id":"mountain-ne_10m_geography_regions_polys-554","properties":{"name":"南岭","nameEn":"Nanling Mountains","kind":"mountain","minZoom":4.9,"nameOrigin":"natural-earth-name_zh","sourceName":"Nan Ling Mts.","sourceDataset":"ne_10m_geography_regions_polys","sourceFeatureIndices":[554],"sourceId":1159103913,"coordinateMethod":"interior-representative-point-of-source-polygon-after-bbox-clipping"},"geometry":{"type":"Point","coordinates":[111.620689,24.587134]}},{"type":"Feature","id":"mountain-ne_10m_geography_regions_polys-558","properties":{"name":"武夷山脉","nameEn":"Wuyi Mountains","kind":"mountain","minZoom":5.0,"nameOrigin":"natural-earth-name_zh","sourceName":"Wuyi Mts.","sourceDataset":"ne_10m_geography_regions_polys","sourceFeatureIndices":[558],"sourceId":1159103921,"coordinateMethod":"interior-representative-point-of-source-polygon-after-bbox-clipping"},"geometry":{"type":"Point","coordinates":[116.968907,26.778876]}},{"type":"Feature","id":"mountain-ne_10m_geography_regions_polys-560","properties":{"name":"阿尔金山脉","nameEn":"Altyn-Tagh","kind":"mountain","minZoom":4.2,"nameOrigin":"natural-earth-name_zh","sourceName":"ALTUN MTS.","sourceDataset":"ne_10m_geography_regions_polys","sourceFeatureIndices":[560],"sourceId":1159103927,"coordinateMethod":"interior-representative-point-of-source-polygon-after-bbox-clipping"},"geometry":{"type":"Point","coordinates":[89.424624,38.495399]}},{"type":"Feature","id":"mountain-ne_10m_geography_regions_polys-665","properties":{"name":"阿尔泰山脉","nameEn":"Altai Mountains","kind":"mountain","minZoom":4.0,"nameOrigin":"natural-earth-name_zh","sourceName":"ALTAY MOUNTAINS","sourceDataset":"ne_10m_geography_regions_polys","sourceFeatureIndices":[665],"sourceId":1159104169,"coordinateMethod":"interior-representative-point-of-source-polygon-after-bbox-clipping"},"geometry":{"type":"Point","coordinates":[90.104257,47.830909]}},{"type":"Feature","id":"mountain-ne_10m_geography_regions_polys-666","properties":{"name":"大兴安岭","nameEn":"Greater Khingan","kind":"mountain","minZoom":3.7,"nameOrigin":"natural-earth-name_zh","sourceName":"GREATER KHINGAN RANGE","sourceDataset":"ne_10m_geography_regions_polys","sourceFeatureIndices":[666],"sourceId":1159104171,"coordinateMethod":"interior-representative-point-of-source-polygon-after-bbox-clipping"},"geometry":{"type":"Point","coordinates":[121.308135,48.534766]}},{"type":"Feature","id":"mountain-ne_10m_geography_regions_polys-670","properties":{"name":"帕米爾高原","nameEn":"Pamir mountains","kind":"mountain","minZoom":3.6,"nameOrigin":"natural-earth-name_zh","sourceName":"PAMIRS","sourceDataset":"ne_10m_geography_regions_polys","sourceFeatureIndices":[670],"sourceId":1159104181,"coordinateMethod":"interior-representative-point-of-source-polygon-after-bbox-clipping"},"geometry":{"type":"Point","coordinates":[74.071456,38.292792]}},{"type":"Feature","id":"mountain-ne_10m_geography_regions_polys-671","properties":{"name":"興都庫什山脈","nameEn":"Hindu Kush","kind":"mountain","minZoom":4.8,"nameOrigin":"natural-earth-name_zh","sourceName":"HINDU KUSH","sourceDataset":"ne_10m_geography_regions_polys","sourceFeatureIndices":[671],"sourceId":1159104183,"coordinateMethod":"interior-representative-point-of-source-polygon-after-bbox-clipping"},"geometry":{"type":"Point","coordinates":[72.852148,35.985084]}},{"type":"Feature","id":"mountain-ne_10m_geography_regions_polys-672","properties":{"name":"喀喇昆仑山脉","nameEn":"Karakoram","kind":"mountain","minZoom":4.5,"nameOrigin":"natural-earth-name_zh","sourceName":"KARAKORAM RA.","sourceDataset":"ne_10m_geography_regions_polys","sourceFeatureIndices":[672],"sourceId":1159104185,"coordinateMethod":"interior-representative-point-of-source-polygon-after-bbox-clipping"},"geometry":{"type":"Point","coordinates":[77.631686,35.523291]}},{"type":"Feature","id":"mountain-ne_10m_geography_regions_polys-673","properties":{"name":"昆仑山脉","nameEn":"Kunlun Mountains","kind":"mountain","minZoom":3.2,"nameOrigin":"natural-earth-name_zh","sourceName":"KUNLUN MOUNTAINS","sourceDataset":"ne_10m_geography_regions_polys","sourceFeatureIndices":[673],"sourceId":1159104187,"coordinateMethod":"interior-representative-point-of-source-polygon-after-bbox-clipping"},"geometry":{"type":"Point","coordinates":[86.280641,36.399009]}},{"type":"Feature","id":"mountain-ne_10m_geography_regions_polys-713","properties":{"name":"天山山脈","nameEn":"Tian Shan","kind":"mountain","minZoom":3.0,"nameOrigin":"natural-earth-name_zh","sourceName":"TIAN SHAN","sourceDataset":"ne_10m_geography_regions_polys","sourceFeatureIndices":[713],"sourceId":1159104299,"coordinateMethod":"interior-representative-point-of-source-polygon-after-bbox-clipping"},"geometry":{"type":"Point","coordinates":[78.763925,41.956367]}},{"type":"Feature","id":"mountain-ne_10m_geography_regions_polys-716","properties":{"name":"喜马拉雅山脉","nameEn":"Himalayas","kind":"mountain","minZoom":2.6,"nameOrigin":"natural-earth-name_zh","sourceName":"HIMALAYAS","sourceDataset":"ne_10m_geography_regions_polys","sourceFeatureIndices":[716],"sourceId":1159104307,"coordinateMethod":"interior-representative-point-of-source-polygon-after-bbox-clipping"},"geometry":{"type":"Point","coordinates":[80.470173,30.542569]}},{"type":"Feature","id":"mountain-ne_10m_geography_regions_elevation_points-192","properties":{"name":"玉山","nameEn":"Yushan Main Peak","kind":"mountain","minZoom":5.3,"nameOrigin":"natural-earth-name_zh","sourceName":"Yu Shan","sourceDataset":"ne_10m_geography_regions_elevation_points","sourceFeatureIndices":[192],"sourceId":1159105613,"coordinateMethod":"source-point"},"geometry":{"type":"Point","coordinates":[120.957435,23.469913]}},{"type":"Feature","id":"mountain-ne_10m_geography_regions_elevation_points-217","properties":{"name":"太白山","nameEn":"Mount Taibai","kind":"mountain","minZoom":6.0,"nameOrigin":"natural-earth-name_zh","sourceName":"Taibai Shan","sourceDataset":"ne_10m_geography_regions_elevation_points","sourceFeatureIndices":[217],"sourceId":1159105669,"coordinateMethod":"source-point"},"geometry":{"type":"Point","coordinates":[107.750116,33.950073]}},{"type":"Feature","id":"mountain-ne_10m_geography_regions_elevation_points-231","properties":{"name":"五台山","nameEn":"Mount Wutai","kind":"mountain","minZoom":5.8,"nameOrigin":"natural-earth-name_zh","sourceName":"Wutai Shan","sourceDataset":"ne_10m_geography_regions_elevation_points","sourceFeatureIndices":[231],"sourceId":1159105701,"coordinateMethod":"source-point"},"geometry":{"type":"Point","coordinates":[113.570219,39.087599]}},{"type":"Feature","id":"mountain-ne_10m_geography_regions_elevation_points-232","properties":{"name":"贡嘎山","nameEn":"Mount Gongga","kind":"mountain","minZoom":5.8,"nameOrigin":"natural-earth-name_zh","sourceName":"Gongga Shan","sourceDataset":"ne_10m_geography_regions_elevation_points","sourceFeatureIndices":[232],"sourceId":1159105703,"coordinateMethod":"source-point"},"geometry":{"type":"Point","coordinates":[101.87912,29.59578]}},{"type":"Feature","id":"mountain-ne_10m_geography_regions_elevation_points-236","properties":{"name":"各拉丹冬峰","nameEn":"Geladaindong Peak","kind":"mountain","minZoom":5.8,"nameOrigin":"natural-earth-name_zh","sourceName":"Geladandong","sourceDataset":"ne_10m_geography_regions_elevation_points","sourceFeatureIndices":[236],"sourceId":1159105713,"coordinateMethod":"source-point"},"geometry":{"type":"Point","coordinates":[91.08342,33.416621]}},{"type":"Feature","id":"mountain-ne_10m_geography_regions_elevation_points-237","properties":{"name":"珠穆朗玛峰","nameEn":"Mount Everest","kind":"mountain","minZoom":4.8,"nameOrigin":"natural-earth-name_zh","sourceName":"Mount Everest","sourceDataset":"ne_10m_geography_regions_elevation_points","sourceFeatureIndices":[237],"sourceId":1159105715,"coordinateMethod":"source-point"},"geometry":{"type":"Point","coordinates":[86.880596,27.980481]}},{"type":"Feature","id":"mountain-ne_10m_geography_regions_elevation_points-243","properties":{"name":"喬戈里峰","nameEn":"K2","kind":"mountain","minZoom":5.2,"nameOrigin":"natural-earth-name_zh","sourceName":"K2","sourceDataset":"ne_10m_geography_regions_elevation_points","sourceFeatureIndices":[243],"sourceId":1159105729,"coordinateMethod":"source-point"},"geometry":{"type":"Point","coordinates":[76.513209,35.882406]}},{"type":"Feature","id":"mountain-ne_10m_geography_regions_elevation_points-245","properties":{"name":"冈仁波齐峰","nameEn":"Mount Kailash","kind":"mountain","minZoom":5.9,"nameOrigin":"natural-earth-name_zh","sourceName":"Kailash","sourceDataset":"ne_10m_geography_regions_elevation_points","sourceFeatureIndices":[245],"sourceId":1159105733,"coordinateMethod":"source-point"},"geometry":{"type":"Point","coordinates":[81.312536,31.066599]}},{"type":"Feature","id":"sea-ne_10m_geography_marine_polys-8","properties":{"name":"菲律宾海","nameEn":"Philippine Sea","kind":"sea","minZoom":3.5,"nameOrigin":"natural-earth-name_zh","sourceName":"Philippine Sea","sourceDataset":"ne_10m_geography_marine_polys","sourceFeatureIndices":[8],"sourceId":1159115197,"coordinateMethod":"interior-representative-point-of-source-polygon-after-bbox-clipping"},"geometry":{"type":"Point","coordinates":[131.265826,22.581452]}},{"type":"Feature","id":"sea-ne_10m_geography_marine_polys-11","properties":{"name":"孟加拉灣","nameEn":"Bay of Bengal","kind":"sea","minZoom":3.5,"nameOrigin":"natural-earth-name_zh","sourceName":"Bay of Bengal","sourceDataset":"ne_10m_geography_marine_polys","sourceFeatureIndices":[11],"sourceId":1159115253,"coordinateMethod":"interior-representative-point-of-source-polygon-after-bbox-clipping"},"geometry":{"type":"Point","coordinates":[88.370748,16.804001]}},{"type":"Feature","id":"sea-ne_10m_geography_marine_polys-12","properties":{"name":"南海","nameEn":"South China Sea","kind":"sea","minZoom":2.7,"nameOrigin":"natural-earth-name_zh","sourceName":"South China Sea","sourceDataset":"ne_10m_geography_marine_polys","sourceFeatureIndices":[12],"sourceId":1159115273,"coordinateMethod":"interior-representative-point-of-source-polygon-after-bbox-clipping"},"geometry":{"type":"Point","coordinates":[113.813285,16.845807]}},{"type":"Feature","id":"sea-ne_10m_geography_marine_polys-44","properties":{"name":"黄海","nameEn":"Yellow Sea","kind":"sea","minZoom":3.0,"nameOrigin":"natural-earth-name_zh","sourceName":"Yellow Sea","sourceDataset":"ne_10m_geography_marine_polys","sourceFeatureIndices":[44],"sourceId":1159115999,"coordinateMethod":"interior-representative-point-of-source-polygon-after-bbox-clipping"},"geometry":{"type":"Point","coordinates":[123.477401,35.995826]}},{"type":"Feature","id":"sea-ne_10m_geography_marine_polys-45","properties":{"name":"东海","nameEn":"East China Sea","kind":"sea","minZoom":3.0,"nameOrigin":"natural-earth-name_zh","sourceName":"East China Sea","sourceDataset":"ne_10m_geography_marine_polys","sourceFeatureIndices":[45],"sourceId":1159116027,"coordinateMethod":"interior-representative-point-of-source-polygon-after-bbox-clipping"},"geometry":{"type":"Point","coordinates":[125.532952,28.45599]}},{"type":"Feature","id":"sea-ne_10m_geography_marine_polys-91","properties":{"name":"台湾海峡","nameEn":"Taiwan Strait","kind":"sea","minZoom":4.8,"nameOrigin":"natural-earth-name_zh","sourceName":"Taiwan Strait","sourceDataset":"ne_10m_geography_marine_polys","sourceFeatureIndices":[91],"sourceId":1159116947,"coordinateMethod":"interior-representative-point-of-source-polygon-after-bbox-clipping"},"geometry":{"type":"Point","coordinates":[119.212404,24.176082]}},{"type":"Feature","id":"sea-ne_10m_geography_marine_polys-103","properties":{"name":"渤海","nameEn":"Bohai Sea","kind":"sea","minZoom":4.0,"nameOrigin":"natural-earth-name_zh","sourceName":"Bo Hai","sourceDataset":"ne_10m_geography_marine_polys","sourceFeatureIndices":[103],"sourceId":1159117171,"coordinateMethod":"interior-representative-point-of-source-polygon-after-bbox-clipping"},"geometry":{"type":"Point","coordinates":[119.562772,39.013653]}},{"type":"Feature","id":"sea-ne_10m_geography_marine_polys-304","properties":{"name":"日本海","nameEn":"Sea of Japan","kind":"sea","minZoom":3.6,"nameOrigin":"natural-earth-name_zh","sourceName":"Sea of Japan","sourceDataset":"ne_10m_geography_marine_polys","sourceFeatureIndices":[304],"sourceId":1159115305,"coordinateMethod":"interior-representative-point-of-source-polygon-after-bbox-clipping"},"geometry":{"type":"Point","coordinates":[137.345958,43.072629]}}]}
