{"type":"FeatureCollection","name":"Hartwell 1290 country","features":[{"type":"Feature","id":"hartwell-1290-country-v5_1290_chin_chn_1290_s-17","properties":{"id":"hartwell-1290-country-v5_1290_chin_chn_1290_s-17","name":"琉球","level":"country","sourceId":"hartwell-chgis-v5","year":1290,"approximate":true,"color":"#b58191","recordId":"17","sourceLayer":"v5_1290_chin_chn_1290_s","sourceRecordIndex":16,"sourceCode":"Y620000000000","sourceName":"琉球","sourceAdminType":"Independent state","sourceContainerLevel":"province","sourceHierarchy":{"polity":"","province":"","prefecture":"","dependentPrefecture":""},"labelCoordinates":[120.8266425307811,23.601465478624558]},"geometry":{"type":"MultiPolygon","coordinates":[[[[121.4907026594054,23.434878006065375],[121.4805019869609,23.414110029713477],[121.47738701359995,23.40054203179586],[121.47520066513589,23.397651040374562],[121.46883337348314,23.388947310441317],[121.4671845164311,23.35775006422316],[121.4628368225565,23.346596281945885],[121.4642562176986,23.33970832571224],[121.45713688778311,23.31631594687247],[121.45484169615949,23.31334886178728],[121.44865435171447,23.312757919606586],[121.44236473586291,23.307740813127147],[121.42726151511349,23.28792574948238],[121.42520678331884,23.285197500471792],[121.42162590701541,23.270587152090602],[121.4166260477218,23.263975650780033],[121.41161616435625,23.235799553925926],[121.41543651022397,23.22862186006078],[121.41495570987227,23.225365795677128],[121.41042063126946,23.219697946903857],[121.39717628960187,23.210226466814028],[121.39287982638352,23.203131518798585],[121.3927930611572,23.196017418448307],[121.39928163260035,23.174622627528056],[121.40290991613814,23.167474099360355],[121.39504423692122,23.1468717198149],[121.39650051365405,23.14293728943434],[121.39593978556296,23.138119020091438],[121.4017684668953,23.126824081687232],[121.40544910626724,23.125499196762124],[121.40714426998849,23.122915230217412],[121.39820036076168,23.114982469936],[121.39152142618012,23.11706057342928],[121.38366872628545,23.103119961536937],[121.37912603134761,23.097913829546634],[121.36627438755956,23.09828354899197],[121.35297181774521,23.087796601377008],[121.34949379312924,23.081402149853634],[121.35137874228127,23.07656633946152],[121.3439197223155,23.06978307077878],[121.34212508557549,23.065159061032507],[121.34181939922986,23.05622469598116],[121.33462544438413,23.032636170616914],[121.3313259076755,23.028342310671],[121.32908790087666,23.021194549935377],[121.32433090757887,23.01805714537948],[121.32299789973139,23.01326665626513],[121.3200170627882,23.01077430203672],[121.31652781249304,23.002064139796055],[121.31690627291214,22.993112603978847],[121.30704628660226,22.974849817376786],[121.29831513531443,22.9652070632676],[121.29078972653573,22.956855167823537],[121.28361320167554,22.955487575799175],[121.277547267954,22.94708954770017],[121.26365088675627,22.912969419033544],[121.24227495624623,22.882896583520733],[121.23208396897991,22.87764691520047],[121.2297940859016,22.870132628671186],[121.22707369336759,22.86741114842956],[121.22324310864356,22.867829245465956],[121.21914330720567,22.86838223355627],[121.20915881216156,22.86541418436958],[121.20047313707092,22.86205567118151],[121.18881885746943,22.853419011888434],[121.18602286091736,22.8491334166297],[121.18348929361208,22.837394375031668],[121.19235067835997,22.80820353059252],[121.19201296689754,22.798990185746792],[121.19026307067868,22.793983503563567],[121.18629393874747,22.79358858682935],[121.18051276032824,22.787825775820707],[121.17719171878618,22.77546691500309],[121.17493506869081,22.772022209600024],[121.1681856056662,22.75899690525727],[121.16616647696866,22.75579261247118],[121.16071566730668,22.75359095497486],[121.12779488324163,22.72280049736381],[121.1056642351384,22.710329029068188],[121.09971091863886,22.708573914292792],[121.08307080526203,22.70246702789066],[121.06889225013592,22.6919875335727],[121.06525041834057,22.68894232841645],[121.05921282848797,22.683861688958288],[121.03531774868223,22.670632618670812],[121.0248866331529,22.662064977964032],[121.0151321153499,22.644400121942045],[121.01078496901734,22.630432770656235],[121.00610474970571,22.596956943347255],[121.00031425426599,22.58645721382417],[120.9797185717291,22.568436788387277],[120.97113990614284,22.553548390003623],[120.96004021077471,22.521063934421626],[120.9499800348699,22.495183193011687],[120.94261943467005,22.461182742496508],[120.94107901550632,22.46012411842544],[120.9265076847514,22.4225113704662],[120.91928974365152,22.411483687919656],[120.89987758801519,22.360701755395834],[120.89466386860008,22.353997936305458],[120.88816790162508,22.334597978218117],[120.88716713337992,22.32584721647881],[120.88519926045909,22.30796857189897],[120.88837932059998,22.263863840290583],[120.89017941343978,22.253103295917356],[120.8935757062613,22.232802189185957],[120.88953662293648,22.221551316102662],[120.89050240961363,22.208964166396154],[120.8885720921068,22.20100405434938],[120.88667516047755,22.192667253763076],[120.88976869001733,22.174920631306968],[120.88549067114525,22.1650973420899],[120.88786714457517,22.156836715447966],[120.8873857658309,22.148278234677544],[120.89032697536261,22.147355882593704],[120.8912771888463,22.145536799601427],[120.88156427981308,22.136187894161903],[120.87987863688602,22.130230229822285],[120.88100397109271,22.124298870627165],[120.88616937818755,22.113652729851243],[120.89173754304056,22.10767826660385],[120.89316814910742,22.103555546792386],[120.88516967162018,22.087160536501315],[120.88443828027712,22.08569601070953],[120.88552020341866,22.060641048543946],[120.88890936730046,22.049804357560745],[120.89354107226912,22.041744988871894],[120.89353999245844,22.03830890056385],[120.88261339345107,22.02914755755307],[120.87886436974999,22.018401508785654],[120.87242676390917,22.01634042994122],[120.87088909698663,22.01295794940663],[120.87189915910336,22.008063672414295],[120.86714456722918,22.001653160034838],[120.85030806577778,21.99350228090094],[120.84269179540566,21.99245898833168],[120.83995667169314,21.99056270340513],[120.83964814409627,21.982994427173693],[120.8353691136217,21.963318445333822],[120.83578897276067,21.954335597167773],[120.84066334713322,21.941407379731835],[120.8482214759966,21.930661130929394],[120.85476826384107,21.921372040564425],[120.85399098474848,21.913317389438152],[120.85786385941314,21.90593084957205],[120.85687249145553,21.903483960604476],[120.85365146661617,21.902128142149966],[120.84750917626724,21.90234267409568],[120.84364435462577,21.90461754751104],[120.83810290302692,21.919881639345782],[120.8308912653302,21.920633160674427],[120.82039400982379,21.93285750920654],[120.81474599631082,21.937173133993394],[120.80544722657929,21.938154220821637],[120.79837476726195,21.944919410749286],[120.79609385660356,21.940536275957676],[120.79390473672616,21.9395757763467],[120.79100305585087,21.945878352902668],[120.78576881446553,21.948641436266094],[120.77521462162302,21.94962856609595],[120.75708786173865,21.96191166525843],[120.75411200848576,21.961443727996215],[120.7404704208259,21.948601889211783],[120.73825317241976,21.936498866697793],[120.7339561959144,21.92638910769417],[120.72951759145717,21.92178123564703],[120.72510800321442,21.920233958800658],[120.71972205930477,21.922088459187382],[120.70987263338945,21.933641779612714],[120.70520371880733,21.93343404907226],[120.70354672970275,21.94028423561784],[120.70537023127682,21.949476005471407],[120.70884034812592,21.966214355693126],[120.70816436532664,21.97662693862515],[120.70574999310001,21.984150055119617],[120.6986726124193,21.99499212412571],[120.68720377304344,22.005581226627033],[120.68105088386335,22.02082772504292],[120.67942865699197,22.02906212363239],[120.68117115806639,22.033714503844987],[120.69152851223022,22.04307471099373],[120.68959743938112,22.050613554335115],[120.6909300679452,22.05570000136489],[120.69727668672078,22.059549855040746],[120.70059726283533,22.065536671864017],[120.7001489738235,22.074424809203173],[120.69500213063584,22.084129091679873],[120.69822106514633,22.08892448076112],[120.70756854095312,22.092775571831677],[120.71037275541578,22.09624210118769],[120.70087957704968,22.127963288758423],[120.6947322518921,22.13401404974311],[120.69258602089435,22.145481177644903],[120.69338082055492,22.15139122601764],[120.68431662369005,22.178211638442484],[120.67838673660644,22.196010386032807],[120.67595540422083,22.214476434095182],[120.67185136614883,22.21946694608634],[120.66302690899819,22.23677773233138],[120.64663243464545,22.249958197111972],[120.64458812244112,22.25453832242428],[120.64462958187254,22.255366829338858],[120.64396312135727,22.267620350098447],[120.63763043369784,22.28714012915423],[120.63521472625494,22.290663094553086],[120.6352350994781,22.301233090437375],[120.6193247170981,22.32378896166644],[120.61225128696684,22.331360155554467],[120.6036515535971,22.334434149143437],[120.59504413415992,22.34270112731425],[120.59086777209481,22.35604054911459],[120.58697483673183,22.362938417925605],[120.58158740584733,22.36959983884276],[120.56882600083468,22.380905445416442],[120.55401536999877,22.388070129815482],[120.53848333456773,22.39849339107186],[120.51753347530486,22.40843674863092],[120.51211560656684,22.410277084489497],[120.50675850403185,22.41423972600502],[120.50275959775017,22.415864622243276],[120.49983152148405,22.417512671952924],[120.49373609189091,22.421122690096617],[120.48650445660384,22.42490400066209],[120.46183660220271,22.435302621253744],[120.45081587844165,22.444934784206037],[120.45601775141763,22.444706354245987],[120.47815764261411,22.433672420358253],[120.48165023478134,22.434256863582625],[120.48358939517993,22.437763604149115],[120.48242944373496,22.440719168580916],[120.47383649374358,22.44859694365489],[120.46512710738014,22.45343307854424],[120.45829019455387,22.45140647958586],[120.45375568504593,22.45273901301871],[120.44738263351486,22.448232427303306],[120.44345110028601,22.44910296696487],[120.43955392033767,22.45311880268568],[120.4350981382728,22.45786714953845],[120.43234124126758,22.462915360825054],[120.43689086820419,22.465195453294267],[120.4383304367984,22.469796988934455],[120.43414404640407,22.469130138453806],[120.43140681325048,22.473711819782096],[120.4280292053241,22.486172603015753],[120.42553828724012,22.481080831153267],[120.42203397055452,22.481607984804285],[120.42012689765241,22.49004814359025],[120.4159397356462,22.489380604565472],[120.41438393935158,22.490540975559558],[120.4122458499826,22.49283204803338],[120.41025928350398,22.494959449639236],[120.41171466869692,22.484364047756802],[120.40943868288834,22.479980903746128],[120.40644208711866,22.481820982766052],[120.39665236395732,22.49839283146976],[120.39519515923423,22.500742378430594],[120.38753518933467,22.503744700487957],[120.38682319532555,22.502369258710534],[120.38946511971174,22.488354226946264],[120.40308328495851,22.480287296456755],[120.40521875538096,22.476167741502017],[120.40303175651805,22.474087363198997],[120.38303727642317,22.484686387482274],[120.37249125962983,22.494327861751355],[120.35770556970543,22.503583485169102],[120.35102709909594,22.501340959055558],[120.34954265523787,22.50471272306144],[120.35001619443719,22.50936620412731],[120.34530228755125,22.515536740367924],[120.34255223984778,22.5177080189153],[120.32295466681771,22.53258528977696],[120.30047505329723,22.55835192675582],[120.29482507744754,22.562990803205643],[120.2727145297361,22.594061961133068],[120.26554246520851,22.601887345035994],[120.25742172907631,22.606889935019304],[120.26330217328149,22.60897924827108],[120.2606474213613,22.613540035665228],[120.25740222979613,22.61865124037464],[120.25726796203773,22.620800601233366],[120.25694641159048,22.624181321735236],[120.24903736257882,22.634057739972295],[120.24586084733583,22.641379630393306],[120.2432056913463,22.65427069345329],[120.24395555453248,22.660639359127025],[120.24644139211264,22.66573225742295],[120.25685710397059,22.676498633187165],[120.2571125253972,22.690530278308458],[120.2590952479573,22.688384922466454],[120.26035011332922,22.680608579331775],[120.26326965383909,22.679434785675685],[120.2655114496826,22.682434365411808],[120.26329115295756,22.68609619649713],[120.26630747082474,22.689073330684547],[120.26485274522702,22.692066093075873],[120.2665844236263,22.695511512432525],[120.26136864375077,22.70285713145202],[120.26069924752343,22.70767680212066],[120.25870135185426,22.70973168304295],[120.25619766704041,22.70751145641566],[120.25869360977126,22.698996312000325],[120.25566611679632,22.694169530178225],[120.24876881589226,22.71620209514051],[120.24192823037872,22.729605905489922],[120.22858108428635,22.755745575005847],[120.20921357522076,22.802187430521343],[120.19741342276079,22.826501546523154],[120.19068785640343,22.846733770866784],[120.18822623512733,22.850148945892684],[120.17872618587447,22.885029980625912],[120.16886090783262,22.907566854221198],[120.17011180577072,22.912839076750508],[120.16684593138875,22.91969987515232],[120.16868018443465,22.929139842388928],[120.16155592299106,22.95237833653906],[120.15407871713117,22.970488301224517],[120.1446890932845,22.98406923244752],[120.12866449625771,22.99945203239711],[120.11723277099367,23.00473041695344],[120.11403401811693,23.013240363997713],[120.1112845043415,23.01253323068784],[120.10813207998729,23.012347111742844],[120.09595828839635,23.020873658032798],[120.08162750809471,23.034149337067575],[120.06430776634335,23.042866781122456],[120.05442947868971,23.04513735211749],[120.05113661003922,23.045893997304027],[120.04719797531365,23.048685222177653],[120.05390762612963,23.056950022679946],[120.0662883910138,23.061061459036587],[120.08387864119376,23.067184281658374],[120.09083414710393,23.072731018118485],[120.09180244973095,23.07268214828531],[120.09280167569395,23.0776190484253],[120.07699844447305,23.069296447401868],[120.05857926205076,23.065880731838064],[120.05964228001044,23.081435400470326],[120.06009704614068,23.084233770191656],[120.0586513754542,23.091559310641866],[120.06190161273732,23.102543973066467],[120.06389760954424,23.107612572242196],[120.0639196709109,23.113153208842537],[120.06833793526269,23.1174994228541],[120.0738204339013,23.118179418540883],[120.08001496172723,23.11903258465951],[120.08698665702332,23.11626097568035],[120.08745148358764,23.125710156961713],[120.08048655530945,23.129127378555648],[120.07777108868167,23.13164798548559],[120.07659057839449,23.140597079477658],[120.07357380910392,23.144269948771253],[120.07016008072839,23.144304945337236],[120.06997668448332,23.146179384860734],[120.0684508218719,23.1668182043311],[120.06941304733513,23.17092767467633],[120.08337319530864,23.172036576469704],[120.08559133461901,23.173653531208227],[120.08506323699294,23.17640946521525],[120.08256837184474,23.18628766385343],[120.07844888629492,23.191598431822626],[120.08283514941105,23.19751850031645],[120.08491040253313,23.213843057939904],[120.08763059191504,23.220928820657996],[120.08937959041722,23.22205969947969],[120.11764748585112,23.22569946056494],[120.11119094733252,23.229873787946705],[120.09016769169669,23.228687602269034],[120.08587735197834,23.232360042345817],[120.08592930645662,23.23447680138043],[120.09167280604925,23.248695530771],[120.09490684049364,23.249333065656987],[120.10131806189118,23.255049306614087],[120.0984244910085,23.26128906575535],[120.10062459907904,23.26697175505161],[120.10558810470836,23.270404861302648],[120.10832568422882,23.27637844031707],[120.11598133194848,23.28071183173131],[120.11674726861689,23.283001340833806],[120.11354532069669,23.289747623440093],[120.1143484902569,23.292862783567536],[120.11701141285427,23.294783495347094],[120.11235212165334,23.299802488579093],[120.11016365563088,23.305569469703048],[120.1118509418216,23.311695355050677],[120.11636033556756,23.313531825133172],[120.1195568611387,23.321099784495356],[120.12184525571138,23.322520845453152],[120.1282425217401,23.319741795704722],[120.13050841724998,23.320427241747925],[120.14044851829247,23.315376269231155],[120.14391285482527,23.315609554305485],[120.13643009301562,23.321318285747708],[120.1260602489207,23.333910587078005],[120.12445022251858,23.335437868899653],[120.12011976012153,23.33948504123472],[120.11936464645147,23.343842312665796],[120.1256479455753,23.35529949054514],[120.1298657505451,23.367887928797277],[120.13217059058108,23.389709637877143],[120.13461570986674,23.391476813439716],[120.13686670450254,23.389671754526987],[120.13305802808675,23.365853278669604],[120.14150711552247,23.367206966843586],[120.14451468415218,23.36464487817051],[120.14676013478284,23.365794671934925],[120.14673485025374,23.370414775367635],[120.14871845556573,23.374741833599845],[120.14823439480041,23.376566628453922],[120.1537615758271,23.391732521469606],[120.15304972245198,23.39395974564686],[120.14959248378348,23.404526689612975],[120.14385780852287,23.404808713763693],[120.14115770668299,23.406863867413964],[120.14012382799206,23.411907172132942],[120.14159886970224,23.414923237899497],[120.14060832910255,23.419036973632977],[120.1453715122999,23.426558664977716],[120.14063803282835,23.428171349001907],[120.13691671565435,23.434159443980427],[120.14320828441451,23.4456120757993],[120.14786387524563,23.446503060943428],[120.14989821135201,23.44814504118139],[120.15260846006936,23.447934707576874],[120.15464645471711,23.453175908583297],[120.14743834190834,23.456441418077066],[120.14592702515041,23.45500014009912],[120.13827333781491,23.454360946258436],[120.135219217962,23.457851396871394],[120.1372643307835,23.46373769528175],[120.13555328747604,23.470632026134094],[120.1402278543873,23.475212470445424],[120.14351011084243,23.488024792292737],[120.15546296358454,23.489145233778775],[120.15697498368633,23.49058620844211],[120.1485405375686,23.493568172475374],[120.14052923387821,23.500917541359836],[120.13731457268429,23.50821429918425],[120.13714949183498,23.513775262533485],[120.14060840732326,23.516317407620164],[120.15872616887808,23.516725415480394],[120.15381387923871,23.520855233706094],[120.14081785137002,23.519978171478243],[120.13958216930979,23.523203145911825],[120.14356817103386,23.529544197064407],[120.13889063554006,23.533915620364915],[120.138628795579,23.538290620987517],[120.14561752424615,23.537827777715947],[120.14813737134347,23.54419721938039],[120.14212725199732,23.54285691827435],[120.13772071601217,23.54589677403941],[120.13217680272169,23.54679491095273],[120.13018938396793,23.55142040212822],[120.13223195777707,23.561457582765406],[120.13195150453143,23.57109386040788],[120.128574783606,23.593542060093874],[120.12633548454839,23.60918118617399],[120.12259905919886,23.60437290380765],[120.12057881980108,23.606418830690046],[120.12563935500127,23.616293184344773],[120.12874416569423,23.624421578830184],[120.1481098793059,23.67520143199955],[120.15410837917842,23.68595147096331],[120.16755635020448,23.7001375644404],[120.17155974165924,23.700570063524115],[120.17279809654792,23.698545403793993],[120.17278143170164,23.69070817479161],[120.17879119712092,23.69555240146791],[120.18297044361317,23.689318071618388],[120.18940772585194,23.68782760047303],[120.19449603499432,23.68293593111951],[120.19295890533677,23.687310482725792],[120.17852707778385,23.70287704456599],[120.17835073188733,23.709543145089164],[120.18234536729857,23.72002923295502],[120.18232793391553,23.729438554137197],[120.18591631438507,23.744594013300965],[120.18968150812408,23.753083578306153],[120.19366255352486,23.756930741511948],[120.19313434356647,23.759681820498077],[120.18710957873019,23.75834505405947],[120.1851752175913,23.759732916412787],[120.1874273307778,23.76383162458303],[120.2069478079826,23.789023280959768],[120.21190038763986,23.79337365861462],[120.21815184517006,23.796059322660483],[120.21494011296055,23.798647822568917],[120.21616535324078,23.80188099084941],[120.2329374054702,23.819906606790557],[120.23592536602278,23.820116474107984],[120.23810970723044,23.822231230119687],[120.24660206197366,23.83045354571872],[120.26139639244951,23.84894734686242],[120.25988087201712,23.852856406562207],[120.26237737267547,23.861342724830493],[120.26714325276333,23.868667822393217],[120.2776222668483,23.87598799006403],[120.28071067630651,23.880330754332643],[120.28388877112656,23.891113508798075],[120.29346688102557,23.903633968674704],[120.30324987355023,23.92561816059783],[120.3069457369613,23.931806812873873],[120.31252400567986,23.93569201851407],[120.32452693086432,23.96204923910036],[120.33331194156742,23.975049792563226],[120.34082645837574,23.993396798614764],[120.34157307394706,24.0001997819537],[120.3461075969909,24.000180808925077],[120.34783061662866,24.00868388734353],[120.35130432961051,24.015271415937626],[120.35773363144268,24.021241347958956],[120.36425500085723,24.032450388720388],[120.3692822052191,24.03300353372706],[120.37301553924122,24.04111877011099],[120.38263354220686,24.04431560273687],[120.39343496307067,24.052775058110797],[120.39818091635478,24.051064376624737],[120.40289410046529,24.062628665392786],[120.40965225916871,24.073431251291776],[120.4174323545086,24.08150285134619],[120.42634078771064,24.08572194173897],[120.42885555997876,24.08774794117697],[120.42966499629716,24.095461526805778],[120.43220010180983,24.098774505039472],[120.43157068796323,24.10089432427104],[120.42682378935008,24.099104544725208],[120.42664472368028,24.104475311026125],[120.43355367677664,24.125481240308776],[120.43149290281387,24.129654108134996],[120.4433126706163,24.14579009569025],[120.44275925977377,24.148359139230827],[120.44729561449951,24.154141061432323],[120.47993660164946,24.18517292808306],[120.48490323651195,24.189968472153502],[120.49381328395461,24.19003638790801],[120.50232900488116,24.18371256914431],[120.50761354356462,24.183393024869854],[120.50979542004063,24.181688805940063],[120.51487047546749,24.172001923589928],[120.51760117794775,24.17178267500853],[120.51128180357163,24.188102866600087],[120.50568484522219,24.192983079488],[120.49388307263563,24.19859398624723],[120.48459730489306,24.200976588244174],[120.48374003831766,24.203498175878103],[120.49634718376285,24.22356441465691],[120.50119926738053,24.227086260654442],[120.51026616606863,24.244908949814143],[120.51537062132135,24.251064237713095],[120.52170047766315,24.264407329588],[120.51952064955603,24.271361034426928],[120.51932289174843,24.27194287569133],[120.52477185289524,24.28707307530551],[120.53046693369042,24.284482206309274],[120.53516421843429,24.2917095706323],[120.54037695937647,24.294992127866905],[120.54033180880292,24.30632751688871],[120.54235464200079,24.316436037767467],[120.54680077887403,24.329133338743908],[120.55473295687696,24.338460056175133],[120.55551999658233,24.346540041491927],[120.55906746942411,24.353383043960545],[120.56591828798314,24.3575273050914],[120.57625355241213,24.37275891784041],[120.57656861591548,24.383854718759164],[120.58173142219017,24.39027350798401],[120.58483684276258,24.398561857163383],[120.58828411606278,24.4001696035102],[120.59894612331516,24.401077365180743],[120.59651815995832,24.40714595207393],[120.59617744234035,24.413826125133838],[120.59788385769312,24.417993246442226],[120.60021816460971,24.42004164655172],[120.60547680325035,24.42064404520896],[120.61215461109762,24.42950704912062],[120.6132304068994,24.436345393636007],[120.61644401416068,24.437158265027584],[120.6208203594665,24.441849985447405],[120.62469569314003,24.44247247477498],[120.63330255253867,24.454454760441603],[120.64763767430631,24.4651257874786],[120.65425694661921,24.478782264320085],[120.66683411203384,24.493026158462122],[120.66835961930079,24.498415519295857],[120.67166291777899,24.510077119304782],[120.6810856965665,24.5295745099448],[120.68484760832673,24.550188063636856],[120.70040195059417,24.57981685554425],[120.70215681041594,24.587655868351167],[120.70944707927748,24.59991784159539],[120.71826152713845,24.611216026453906],[120.72121926742466,24.612800729620805],[120.72965518708614,24.612741376267817],[120.73977103976333,24.614916176910825],[120.74729422193644,24.616464139939865],[120.75983642574303,24.614869759786977],[120.76491037648607,24.616045557700478],[120.7563537057204,24.62284480919201],[120.75436461105315,24.62912411189479],[120.75165531549575,24.628975839646163],[120.75032267856383,24.633316257206246],[120.75748190172334,24.64761900906549],[120.76415161204726,24.649385359751033],[120.76847399760099,24.65251397296821],[120.77552516440878,24.663886379056933],[120.7932763176889,24.669886816584476],[120.82359908769415,24.670414007322353],[120.83794803802004,24.6637549425647],[120.84044901111731,24.66384035929824],[120.85753694404299,24.664315407739295],[120.86014778252313,24.668433870233873],[120.8530684339901,24.670600411411403],[120.84911366320378,24.670733257656558],[120.8394126596573,24.67099084472936],[120.83654864838397,24.6756537884169],[120.83143909841314,24.674302241222904],[120.8286272825814,24.67812869791743],[120.82557862514692,24.67775679399159],[120.83746859345088,24.691714445292785],[120.85118349655775,24.70300433142621],[120.85404920948935,24.708004693739394],[120.85780527221779,24.72603169336523],[120.86104158850725,24.731436253288475],[120.87190288576916,24.74002228912314],[120.87796567727358,24.742241505239935],[120.88157713610154,24.740135014498904],[120.88801570580551,24.74505810766451],[120.89282580275537,24.74580815574605],[120.89539571908374,24.749103208473652],[120.90126652625163,24.766074057401703],[120.90451396264832,24.769819160304554],[120.91079225452415,24.79813772880417],[120.91336429474806,24.80143181654125],[120.91718912895077,24.802789252506],[120.9136354608384,24.817677268800757],[120.91400699799155,24.825442217752165],[120.91081507745795,24.827117811338585],[120.90974909626073,24.830682156666057],[120.91357650392088,24.83939979219425],[120.92011404817823,24.84596194868105],[120.923961174936,24.846303864938164],[120.92872706030084,24.84337936919368],[120.93470980802854,24.843399792059905],[120.93569907648038,24.846747220238363],[120.93438783540783,24.851176627984398],[120.9403667762973,24.852301438603416],[120.94335927612747,24.85626742517194],[120.93938424453823,24.863673560566664],[120.94299215200333,24.87168690872372],[120.94290954086361,24.876299267630568],[120.94553124056512,24.884368659101888],[120.95197421739587,24.89600271550428],[120.95432871237867,24.898040286337142],[120.96197362250174,24.904617141683534],[120.96995269034392,24.90405967967832],[120.97247034786753,24.905888331371926],[120.97005181907647,24.90800048120002],[120.96130501815084,24.910421289360986],[120.9650236814779,24.92016444185705],[120.9673552431617,24.924320900117387],[120.97595323145617,24.932317016543458],[120.9831579966172,24.936382989439846],[120.98118535133797,24.940451623339385],[120.98285381002312,24.94479954261019],[120.99538646989203,24.953581093946806],[120.99920448111321,24.959352360878622],[121.00540514714017,24.964488188108533],[121.01547508830748,24.98578031632795],[121.01418850443183,24.98808990770282],[121.015159517372,24.99355400545405],[121.01391370360157,24.998340690852423],[121.01442654940199,25.000102822839565],[121.01611020720576,25.005643194567174],[121.0278871659864,25.021892723179885],[121.03977652644743,25.03426116748665],[121.04299600507,25.036074180181114],[121.05021199500075,25.040134355207485],[121.067549547239,25.047170205115787],[121.08874592647194,25.06180450490229],[121.10142775714844,25.066229412593067],[121.11250272445005,25.07227613582779],[121.127250531116,25.0742696769212],[121.15082485816677,25.082002125739574],[121.16080338503558,25.087475191233235],[121.16445014703677,25.08830022485311],[121.16647896661291,25.086796005336932],[121.17998627906476,25.097984819373305],[121.20173956184864,25.104972582040983],[121.21050799706968,25.109798138871806],[121.23993579095803,25.11993114918485],[121.2568513984555,25.12166903611282],[121.27402845524591,25.11821342683703],[121.28387313942258,25.1184537062233],[121.29186861010325,25.125047343161434],[121.29900538636286,25.126345118023377],[121.31681493583433,25.12582117281608],[121.33335987712506,25.127144304310235],[121.35174302006149,25.13636931749165],[121.37251283812752,25.14329231643234],[121.3876259639013,25.152647236628354],[121.40729464849574,25.169392658927947],[121.41050188360552,25.17763671772521],[121.40082138101434,25.184924388823493],[121.41242042705902,25.193070053739],[121.41925811855113,25.208019939042778],[121.43001958326752,25.217580738598254],[121.43720168229972,25.231648192451235],[121.43688438562138,25.236479850546825],[121.44464084432607,25.252573087127576],[121.45553465510106,25.24969471541043],[121.46658182827844,25.25966773344391],[121.46818302872157,25.26457057959411],[121.46981723669735,25.26965219376079],[121.50208346747739,25.2848923433828],[121.50496795427858,25.288584203230847],[121.51384788482385,25.28509285321086],[121.52119808136545,25.287448273343696],[121.52824263268097,25.290862357387283],[121.5275674562113,25.29372627623261],[121.52905436420845,25.29689859235962],[121.53181777987925,25.297205661704556],[121.54592579791375,25.29216459844084],[121.5498632415663,25.29394443570087],[121.55699414593217,25.292928527330833],[121.56702036860707,25.298360310530985],[121.57273912017104,25.29783889313484],[121.57859110385327,25.29315733121539],[121.58294513632374,25.292847652280578],[121.59138845545203,25.290797253970922],[121.59987541071834,25.28248427351497],[121.60859122532507,25.27974586170977],[121.62334436448644,25.26631324302528],[121.62802520397503,25.25803874023725],[121.6314663047738,25.24416125786929],[121.63357812406544,25.235550975704452],[121.63768882250511,25.231780349773867],[121.64597639502709,25.233244862525954],[121.64824067005824,25.230866561058193],[121.64621362017078,25.223178770262315],[121.65502581612829,25.20965426795458],[121.66678920043111,25.20394760247869],[121.67366950555613,25.20323768507435],[121.67723012691523,25.208384887654276],[121.68275022682441,25.208439748547725],[121.6904929270949,25.21559938108999],[121.69449397267964,25.217180235921713],[121.69560501495243,25.21507350166558],[121.68677692802116,25.204771617004937],[121.68830104898953,25.200575586753004],[121.68165661150606,25.19177109487151],[121.6831356183542,25.1884102862297],[121.69216242833964,25.18147244374062],[121.70419510450981,25.17562595903435],[121.70537535086629,25.16743360067113],[121.70759153024943,25.16588895843887],[121.71750005033601,25.168013152009554],[121.72652220024652,25.161071995600622],[121.73043555622866,25.161652836728376],[121.73428300885497,25.15865428201546],[121.74250460384825,25.157636069562063],[121.74122145957354,25.150750681090525],[121.74544897644375,25.1460347911105],[121.74446540742878,25.143980578489128],[121.74023887071255,25.142253024825436],[121.73570876553,25.14480727874001],[121.73449960418381,25.13293936942018],[121.74150371908206,25.138832122843198],[121.75334972050364,25.142764815570434],[121.75653461396638,25.150179040505982],[121.7605285321377,25.153875704318352],[121.7561706993063,25.155206966130034],[121.75601509624352,25.156520143002666],[121.76186607296219,25.16158087281634],[121.76786690453302,25.1610028550334],[121.7693479670792,25.158744219188474],[121.7678854341184,25.155200915937986],[121.77514159517868,25.152767497986655],[121.78482675659981,25.143506249974923],[121.78798312488699,25.1421792811905],[121.7903399661186,25.143003732452936],[121.79107523526487,25.146938015715474],[121.79653846904291,25.146166939738915],[121.79936934442881,25.138815276913608],[121.8027440397486,25.13598033573855],[121.81391986948775,25.135777883456825],[121.81686072965991,25.125277663654],[121.8239618269137,25.124706008417206],[121.8275278894457,25.129849438713535],[121.83221470984607,25.132421541191185],[121.83606049212638,25.132640932550913],[121.83727759844821,25.13272430209922],[121.85117879063387,25.129968467318896],[121.85885283344035,25.124976336055504],[121.86624238877472,25.126473740418074],[121.87768824647698,25.125577049624553],[121.88582368897458,25.121982569614783],[121.90820688961193,25.124408030240794],[121.9119478442954,25.128324556545234],[121.91512241468698,25.12763507130192],[121.91456883651824,25.122566682704107],[121.90978488802358,25.117895394452166],[121.91182438384823,25.11490035931118],[121.91735575242542,25.115032581919028],[121.91689729392854,25.107278374658275],[121.91381676402656,25.102612107638894],[121.91457175237956,25.099176736864234],[121.91143928257549,25.08678308763116],[121.9112710953864,25.08588896303759],[121.91268750681753,25.079585306461205],[121.91919303599767,25.068418369074458],[121.92486469361819,25.063461984954593],[121.92311540565487,25.058951675686693],[121.92582853157177,25.05050621519099],[121.9267271129129,25.03986295865104],[121.93081188661384,25.030737372139473],[121.93690653677334,25.026448702894502],[121.93263270228012,25.022341048841447],[121.93743340739536,25.02074572596129],[121.94730962125486,25.02432693973612],[121.95281867929894,25.02436794493147],[121.96690911376523,25.028010951961],[121.97312363424213,25.0270169595591],[121.98053305236543,25.0233441218585],[121.98468754922241,25.015677843131886],[121.98746080257794,25.01606287325929],[121.9914708750345,25.01928979027564],[121.99933891219295,25.014344256701005],[122.0001827385174,25.010339732754012],[121.9984266344413,25.007396747310832],[121.99427758651711,25.00502143095791],[121.98822526913068,25.003687862984858],[121.9846507272276,25.000114670484106],[121.97626200317154,24.99169235957642],[121.97113087915807,24.989934096882497],[121.96111530731793,24.982415963067027],[121.95603552857261,24.980925226951886],[121.94470789572401,24.97757701340379],[121.92474807210543,24.96924939270361],[121.91886680444489,24.96401571362691],[121.91230500298879,24.951427965476338],[121.90564739534057,24.948436416998963],[121.8975990207522,24.940691289342563],[121.88655284385177,24.93720064748102],[121.88274414744608,24.93393808455975],[121.87810314300717,24.921963458566488],[121.87819219835777,24.91817185446278],[121.86592624902922,24.902804251554507],[121.86129365487967,24.899395710175106],[121.84702343355073,24.88876756518342],[121.84045346639492,24.877650470957548],[121.83058219308106,24.865952018946423],[121.82719706074586,24.859579584420192],[121.8201343140412,24.8350861457522],[121.8142245943952,24.810868513664406],[121.81211372067435,24.792035733782548],[121.81193561404959,24.786258056575267],[121.81122545719172,24.766371776651745],[121.8151904385477,24.744818957102463],[121.8235461970036,24.723302685717492],[121.8238777274892,24.719193986617373],[121.81608470086555,24.717484835413387],[121.81785090904772,24.715728828542368],[121.82072144660324,24.715087492363704],[121.82512396931376,24.71410992663016],[121.82708030756713,24.711770332575394],[121.8262937888168,24.707009874746134],[121.8295554255384,24.701512277322564],[121.83467702052982,24.66105310520676],[121.83808053780609,24.6499071864142],[121.84542507689075,24.634258926825048],[121.85258059122074,24.622419935951616],[121.86038140741422,24.613519759459123],[121.8662483814455,24.6102764713855],[121.87404214638069,24.608292306273107],[121.87708556003321,24.607528760094294],[121.87799514432456,24.605999904867062],[121.87723762523842,24.603538898942613],[121.85721018320345,24.606649172577065],[121.85365950574052,24.6009456833536],[121.85468215570229,24.59146798303815],[121.85672838154035,24.588558705561265],[121.86054754551864,24.585550339385385],[121.86378750989248,24.58798346496305],[121.86742692492712,24.587216966909835],[121.86891921034947,24.58347367452969],[121.86520928651478,24.58065470746612],[121.86413542103594,24.576491774300155],[121.86629021682624,24.536763173556185],[121.86407435658235,24.532874762324752],[121.85105361687111,24.530253552068793],[121.83538615952172,24.524087520944896],[121.83229940484811,24.519784270904644],[121.83138166328763,24.511629266648725],[121.83251513909947,24.504345479696482],[121.83942520373945,24.498720995655024],[121.84441683698483,24.48759094317206],[121.85141495696551,24.486194599106227],[121.8523337030285,24.483649010979374],[121.84996995960226,24.48162869118395],[121.8419103367569,24.480519488654476],[121.83315890441932,24.476752753009258],[121.81480166103586,24.46298839832198],[121.8118331677635,24.45340681892537],[121.80593248772193,24.4462305902657],[121.79612118337329,24.436172415596417],[121.79440525523857,24.434416589638673],[121.78766351054259,24.419992760042152],[121.78403830624507,24.40414834008531],[121.78244476817179,24.385856815170335],[121.7764647038854,24.365311519546452],[121.76559725076821,24.341392058100478],[121.76597784590399,24.324628115592105],[121.76375973359485,24.31529192239134],[121.76454975381307,24.312581791443094],[121.76258564172934,24.305696603960307],[121.76133812073462,24.303772972938976],[121.7595068585352,24.300834962109093],[121.7450113638078,24.28838009988055],[121.74266076667286,24.284232478433722],[121.73821572142461,24.262236171140707],[121.7283464584817,24.25116409950726],[121.72260740465059,24.24690964102183],[121.71209359135607,24.245261234049696],[121.70806381023527,24.242210735989744],[121.70046656844828,24.22782084853707],[121.67641566838434,24.21447730206974],[121.67366341001133,24.21297631722254],[121.662745925788,24.2015112254545],[121.6493670706052,24.175481719782955],[121.65701650707369,24.157188743067323],[121.65865260925047,24.14880471671635],[121.6514706679786,24.125757242093865],[121.64818072812157,24.121294313787114],[121.63068962419914,24.106806605660907],[121.61915538000082,24.09728045199731],[121.60875315673084,24.080371768340722],[121.60725749602746,24.074330260799996],[121.60823568919102,24.060139972196897],[121.61017232888025,24.054477056657166],[121.62390402188721,24.029949666977107],[121.6369722247261,24.018637680516054],[121.6400429074642,24.012700357604814],[121.64055983990659,24.005229410574263],[121.63933929268757,24.00015896499273],[121.6346929989051,24.000158972594487],[121.63109575932674,23.99343435307962],[121.62238094537086,23.989000740962116],[121.61482647505507,23.98170364307073],[121.60850742438573,23.974671653720673],[121.60210940522278,23.96284877192135],[121.60096366884926,23.9456652434129],[121.60483684318729,23.940339060453788],[121.60361386825329,23.93850108948062],[121.60549783165732,23.9369085663949],[121.60523870811316,23.936025977560302],[121.60111884932523,23.924763822197924],[121.59752544709379,23.888104153452666],[121.59168646559348,23.85863474555441],[121.58067138536728,23.834882533030733],[121.5757750872476,23.81819585897568],[121.57306215980758,23.814653261203414],[121.56893708855834,23.809301855083625],[121.56613373873972,23.801984634283805],[121.56527313719799,23.775413687352653],[121.56810474947787,23.759991730271896],[121.566279099342,23.753165173649588],[121.5576839106032,23.736692343180234],[121.54655238545293,23.72034383873131],[121.54421920808238,23.71396670251404],[121.54418964884523,23.70888752125378],[121.54777302098431,23.699259676805397],[121.54669578044836,23.696565176179508],[121.54264527063862,23.686670291385152],[121.53755230431507,23.656232517495592],[121.53256772131735,23.648241314936442],[121.53047312263978,23.640438098157404],[121.52621064868542,23.620589646279633],[121.5257891782627,23.598558053441465],[121.5191424099515,23.574184822956703],[121.51719605808157,23.567188580034504],[121.50659994726543,23.54982115902766],[121.50343937509628,23.533861502602832],[121.49807827080424,23.52426198295739],[121.49746570155767,23.513723337485168],[121.50009453223976,23.498784970325534],[121.50350925837274,23.49371039043465],[121.50745615161533,23.491603373529387],[121.50763846049117,23.48768954369922],[121.51059454918412,23.484444784287803],[121.50377620575225,23.47766595319158],[121.4941505626775,23.461249881208417],[121.4907026594054,23.434878006065375]]],[[[119.53475755998357,23.546291573364552],[119.53477549374816,23.54702656134366],[119.53830889580014,23.553263113150898],[119.54232766079016,23.553255401656006],[119.54349069641019,23.545718144488777],[119.55054908818765,23.533300916572717],[119.55322314702146,23.5309912838769],[119.557452056809,23.534180275096983],[119.56123151393835,23.533283229313096],[119.56839576010485,23.525274530554857],[119.56994839542295,23.525794918482607],[119.57193059287324,23.531510403952684],[119.57663802544636,23.532142470149598],[119.58455353187918,23.52826846177809],[119.58835491500162,23.5287502715379],[119.58735909290284,23.53174790364088],[119.58830381111292,23.535856680535066],[119.5930444223775,23.541646412370866],[119.59574078692496,23.54938181744758],[119.59497971067742,23.552623009538667],[119.59202437107878,23.553774498385753],[119.58808115681558,23.55054681573048],[119.58377446770555,23.55492958268513],[119.58079659355157,23.554701022066173],[119.57717006257947,23.551613049839887],[119.57211123992326,23.54752681596741],[119.56518252691568,23.547112854211477],[119.56314870801701,23.5509925561601],[119.55549781561264,23.549111673098302],[119.55071379852005,23.554204881703804],[119.55395196725227,23.55670257838156],[119.55850372241201,23.55634326086361],[119.56711319238916,23.555600900561178],[119.56959619849361,23.56013967341958],[119.57384362544246,23.561573820029682],[119.57554761832252,23.564285463902966],[119.56864126360948,23.567740219220454],[119.56361046373848,23.56383417718189],[119.55340975689565,23.56009697633648],[119.54844267992986,23.562173331248662],[119.55448649440697,23.568150927325824],[119.55812184495537,23.57501769775361],[119.55764711945879,23.57821813180137],[119.55289023177701,23.5834913170269],[119.55536831553711,23.584896686350273],[119.56406606536162,23.584695765557882],[119.57330627086752,23.587921095644187],[119.57429540744033,23.594788329707576],[119.5785312367133,23.587467030228666],[119.57730711099676,23.580355954676183],[119.58078610779579,23.57940841921958],[119.58400599719224,23.57434873777023],[119.58525547561678,23.572330184713298],[119.58828293293166,23.571629886359062],[119.5892035988149,23.57620246051039],[119.59224557478535,23.579924900591443],[119.59198231308275,23.583833455986937],[119.59569830520667,23.585617748097132],[119.59721145366169,23.58835569630925],[119.59297311230179,23.5993654250392],[119.5936756871367,23.601940237365408],[119.60363342376398,23.605339195866513],[119.6111457551113,23.60198221938919],[119.61435974305212,23.608629551424755],[119.61732083163226,23.608122296726048],[119.61906425381868,23.606126459782285],[119.61805883283829,23.59732588963687],[119.6150783178946,23.592765925149834],[119.61706534677037,23.579950100772294],[119.6205611183381,23.581580091399424],[119.62408863221607,23.58587894173511],[119.62500286652586,23.595337933742336],[119.62757832677464,23.596728078893562],[119.62975253467144,23.59559332488894],[119.63132028216641,23.590026542636153],[119.63174832463446,23.588399287451313],[119.63451236150408,23.587273757918712],[119.64217046252753,23.593481103159213],[119.6402071615512,23.595324018847926],[119.63547734745842,23.593960084768224],[119.63427168237943,23.596249605914625],[119.64394652021068,23.610193555360834],[119.64767620369841,23.607733823456325],[119.64838558703303,23.59924536851807],[119.65313785021927,23.593968136814585],[119.6581708444942,23.593537095535314],[119.66136376627698,23.600647506762503],[119.66680145071498,23.59536537248249],[119.67254231427634,23.58275684008057],[119.67229956927974,23.573848040488706],[119.67610955761931,23.565751234970786],[119.68504052608628,23.562095670601202],[119.68433602950132,23.55583293874913],[119.6695802498881,23.55247170950203],[119.6638419858835,23.56139323367225],[119.65866197498441,23.562122120972607],[119.63900397794701,23.55999940302615],[119.62562740514457,23.54740306313695],[119.61790397559254,23.545075763997193],[119.60812295532438,23.538426581422527],[119.60122280721042,23.533862110635013],[119.59752457953095,23.525990267299566],[119.59903221750028,23.523750501242112],[119.60380256259138,23.52354269120742],[119.60448986633145,23.521694446456408],[119.60024146330726,23.517772172306667],[119.60008143418132,23.509957150240815],[119.59807392723695,23.50903993584838],[119.59006676822453,23.511084272342885],[119.56722450005432,23.508565784752133],[119.56299908048992,23.510355454851684],[119.55972698078915,23.52252228705544],[119.55752898374047,23.5241202952701],[119.5452884409083,23.524816338462603],[119.54259042471475,23.53007933048273],[119.53986968431943,23.531473267905692],[119.53785682845447,23.53673250607029],[119.53438269281445,23.53832355929311],[119.53475755998357,23.546291573364552]]],[[[121.50204056079892,22.084885358222188],[121.50803408144506,22.083728034386088],[121.52957286826405,22.085067725913486],[121.5527848076691,22.083807048594256],[121.55965938373095,22.089289473072128],[121.56644551481948,22.08548984543281],[121.56559365283938,22.07847031171147],[121.56710616040596,22.069485449972227],[121.57099357459825,22.062437896374476],[121.56702007113432,22.06131823463619],[121.56296720100553,22.054261227809025],[121.56367738755755,22.0445694015725],[121.57118885915338,22.037767911592706],[121.57823879180336,22.034388057267503],[121.59070765991414,22.028264439925753],[121.59347503091792,22.025302519527497],[121.58680732984004,22.00453747723328],[121.58280247094606,22.00267973108039],[121.57602292111446,22.006481587176165],[121.56724842477486,22.0039126409928],[121.56367585879414,22.005052429914382],[121.56289594776236,22.012153462371515],[121.54262361056618,22.02726054932145],[121.5302743470657,22.025827484020244],[121.52743864166038,22.027310875031098],[121.52076502699438,22.037784841797144],[121.51543712042388,22.040509021663812],[121.50282122649543,22.046924910964734],[121.50249729709083,22.049487460762744],[121.50568004781965,22.055478799508563],[121.5025398442636,22.061844440311354],[121.50429884853675,22.069646661507782],[121.49477718684045,22.079369614590313],[121.49440760392461,22.082775738780317],[121.49521193264053,22.0845974214082],[121.50204056079892,22.084885358222188]]],[[[119.53419206700124,23.639003278226927],[119.52252197585969,23.62910882706528],[119.51150491576077,23.627693061061613],[119.51004347612056,23.624025719497652],[119.51284921493091,23.61506439981348],[119.51178259438004,23.61078902194939],[119.51315502839566,23.605805483567764],[119.513855411276,23.603403862532083],[119.51211700780757,23.596733328788826],[119.50439630044944,23.590065615568022],[119.5073826332066,23.584119885724444],[119.50317810013492,23.580465083285418],[119.50936309371133,23.569926067585964],[119.50967948778035,23.567577621927818],[119.5078849243026,23.565523044555025],[119.49027244814995,23.565761164813633],[119.48253003088256,23.56204433984401],[119.47439144854842,23.563912413513364],[119.46811744817337,23.560174993046427],[119.46220444476764,23.559981853080064],[119.46040186439862,23.56161456657394],[119.46269565257445,23.564983109132637],[119.47357044569091,23.57241400637726],[119.47953527074283,23.56918908217926],[119.48301068663216,23.57008877144393],[119.48766538981104,23.573497416996084],[119.49021318795536,23.575355362018346],[119.49398262899572,23.58248143389676],[119.49344832079144,23.587809334941696],[119.48544399891296,23.59740101181885],[119.48671951656839,23.599896540560593],[119.493954516537,23.59787725715333],[119.49537229818694,23.60127457365289],[119.49611775864967,23.6072537050299],[119.49913551116869,23.612087380250767],[119.4985840651013,23.61419158426832],[119.49241078826566,23.61735360430985],[119.49115128299509,23.62056982559324],[119.49390957090151,23.625623820658635],[119.493875641788,23.634751865680165],[119.50027636555954,23.64049741341843],[119.50381101062726,23.646733182261304],[119.50830331131613,23.647214421438253],[119.51496172360376,23.642141413291363],[119.53036208808122,23.64147209731704],[119.53419206700124,23.639003278226927]]],[[[121.46212394266598,22.676919311048604],[121.4752698414442,22.67907770450776],[121.48509463748108,22.678985123001073],[121.49178711514828,22.676612078826384],[121.49774568492285,22.678344867679794],[121.50265620403187,22.677463132351424],[121.50365663898876,22.658379750077046],[121.50114496286771,22.650805959237985],[121.49605292552535,22.647357249436013],[121.49577533976279,22.643041947548888],[121.50261888868998,22.63164466396023],[121.50100183162814,22.628564962470573],[121.48344115161409,22.63389167990662],[121.47351644880071,22.645503437521903],[121.47163919227279,22.64645400271482],[121.46679583318014,22.64880794138005],[121.46743604478031,22.653528641037575],[121.45884318221633,22.670488989641584],[121.45862948003906,22.674789703504768],[121.46212394266598,22.676919311048604]]],[[[119.59120716508288,23.62164226373829],[119.58571880627481,23.62416121913256],[119.58122942979348,23.621839558975015],[119.58022835631134,23.624191574122065],[119.58540182953594,23.63268501166576],[119.58563655636725,23.63726049458268],[119.57399409126981,23.65050008543787],[119.56943739959904,23.662011044266308],[119.55898544470332,23.661718871174415],[119.55499759142224,23.653889087380218],[119.55234368991067,23.653245545799347],[119.54652238935168,23.658019908616595],[119.54381679494027,23.662636058359073],[119.54434064291522,23.665327593055256],[119.54656494530622,23.66759779973296],[119.54899573174715,23.669931323337337],[119.55575685900844,23.672951048313262],[119.56517418848757,23.67228227986291],[119.57264255025561,23.67851974682583],[119.5854041615877,23.672313788907697],[119.59205417518825,23.672766532676214],[119.59380523240598,23.665241295565586],[119.59832711063503,23.66156755242882],[119.60403668863898,23.65053859224401],[119.60184001495557,23.648449794973622],[119.59833230108002,23.65170557388368],[119.59461772887052,23.650566329694826],[119.59041484261832,23.639541557516324],[119.59119519017614,23.63703609628225],[119.59909502887862,23.637958433276896],[119.6013725410556,23.635611965226254],[119.59514772240077,23.63040005496025],[119.59120716508288,23.62164226373829]]],[[[119.42282217209097,23.190552409221006],[119.41987079920698,23.19354681853623],[119.41591520065673,23.19197445510791],[119.41586493162855,23.19604175393867],[119.41269670355013,23.199527386219035],[119.41558439743311,23.203647543759757],[119.41487042007905,23.20596142757128],[119.40642689956601,23.212578934900616],[119.40736039675228,23.216693770680532],[119.41088670655772,23.219894709924677],[119.4175934159892,23.219054902554213],[119.42375795782561,23.222257767513312],[119.43765038950204,23.223646712304316],[119.44017245225871,23.222280600574365],[119.44114953165698,23.21789991039176],[119.43622973646194,23.203266818309103],[119.4320178221767,23.20256122238602],[119.42654567897003,23.19815507843057],[119.42554350338658,23.191096607612387],[119.42282217209097,23.190552409221006]]],[[[119.48479396872901,23.35380334723431],[119.48157716938869,23.356373202808932],[119.48325307540114,23.360198077062787],[119.49021550640698,23.367159824711017],[119.48893436722616,23.370843370967318],[119.48973147063052,23.374052668619086],[119.48644594535135,23.37930672289836],[119.48839088906672,23.38733638174491],[119.48588519500926,23.39257365275141],[119.48618931642025,23.39575921241077],[119.49364302991843,23.391492400896578],[119.50105633210612,23.39257988556673],[119.50184456983229,23.386382731849356],[119.50453723753276,23.38047309574107],[119.50112951954911,23.37559900152553],[119.50240300648805,23.373115438607147],[119.50532884827719,23.37243042692017],[119.50910211858768,23.37402517460144],[119.51157758958048,23.3710969327372],[119.50930099393926,23.367817521034354],[119.50387192027014,23.366269409820482],[119.50162059475687,23.362525111531657],[119.50516353406549,23.35704966594018],[119.50285540823947,23.355434784755406],[119.49667499765779,23.35657394513133],[119.48479396872901,23.35380334723431]]],[[[120.35040937119916,22.322681358026028],[120.34673387455115,22.329813997829664],[120.34621055073312,22.33489782746651],[120.35236899924621,22.337588997713773],[120.35607801148188,22.341296244396773],[120.35789207006816,22.34880989404778],[120.36379218005996,22.352280698942373],[120.37368047646532,22.35524492583137],[120.3822868262332,22.349224650648992],[120.38127608427719,22.3430735011159],[120.37261043054369,22.337516342217626],[120.36226345939536,22.32702003404052],[120.35460906513923,22.322885411995497],[120.35040937119916,22.322681358026028]]],[[[120.01140842442975,23.433160041029097],[120.01071836707362,23.455408066849643],[120.0132304465165,23.48226740257141],[120.02395495287806,23.507754757170066],[120.02922177122385,23.515390607339675],[120.03894745282933,23.52930182029014],[120.0413653099881,23.529690614589637],[120.04464667679277,23.525156840733825],[120.0438805190347,23.52286867411462],[120.03395408437538,23.514338119027062],[120.02465806064563,23.50064085654917],[120.02070758235871,23.485432762258093],[120.02169759440245,23.47947652052354],[120.0169217707695,23.467616366412123],[120.01588991664497,23.43961907336818],[120.01443450390471,23.434291982434452],[120.01140842442975,23.433160041029097]]],[[[119.59453005185293,23.729183006716386],[119.59362034107144,23.73520691636415],[119.58822752577366,23.74084335125996],[119.59672568744773,23.747948344230732],[119.60311259687204,23.7578353114127],[119.60867919788598,23.751437074700124],[119.61310274133835,23.74897575994941],[119.61284620108933,23.745510490416425],[119.59649171108629,23.737201270784436],[119.59453005185293,23.729183006716386]]],[[[121.95351773754955,24.836379845153523],[121.9474336666328,24.83799960315943],[121.93871731943452,24.837828390335744],[121.93229288414915,24.844017688520317],[121.93251892768224,24.84628557444741],[121.93964794407697,24.845974195409582],[121.94207629928033,24.850930915809528],[121.94639898465105,24.851621309836716],[121.95318806183012,24.848967257320158],[121.9565023932682,24.842169009269014],[121.96100247178109,24.84061833400182],[121.95722477721368,24.836984034607042],[121.95351773754955,24.836379845153523]]],[[[119.66670580950448,23.244852188422705],[119.66123652454108,23.248578882228298],[119.66225776116956,23.25378770650499],[119.65673891396948,23.260289738967096],[119.65745046236805,23.262311936220353],[119.66895170150742,23.266408644820192],[119.67266772521471,23.260253307311924],[119.66871105557168,23.25379838215768],[119.66844551705259,23.24534457525052],[119.66670580950448,23.244852188422705]]],[[[119.5091325756065,23.482563035178174],[119.50310713504668,23.483494916595305],[119.50067063175375,23.489181957862368],[119.50936316302658,23.487140983219536],[119.51429520620111,23.491708902047137],[119.51897180951183,23.492163200261057],[119.52153582079316,23.49475601034734],[119.53119177818792,23.498203175073755],[119.5346434149365,23.497721370161283],[119.53446162241809,23.494704092201516],[119.52997612186878,23.49173433094707],[119.5091325756065,23.482563035178174]]],[[[122.0715998201277,25.64225511907577],[122.07411180207329,25.642222183354416],[122.07720824178871,25.639980686510462],[122.07913710248464,25.634798531317042],[122.07919860539428,25.632489496142494],[122.0773519394628,25.630209143264384],[122.07667612616133,25.62562655809872],[122.0729975399573,25.622718830411706],[122.069784946557,25.622771656695438],[122.06789108494554,25.62445338175341],[122.06723055461673,25.627317828346655],[122.06851883236757,25.632998242453777],[122.06842651504182,25.639358641475166],[122.0715998201277,25.64225511907577]]],[[[120.0276483270593,23.081005837785373],[120.02370345113901,23.09340588087464],[120.02315625676468,23.10327924580508],[120.02565551457907,23.1108621848898],[120.03087201647658,23.114724291693683],[120.03335985786498,23.115009696645014],[120.02985434295168,23.10785027044922],[120.02866110854926,23.09989285087375],[120.02910073797858,23.081534055083342],[120.0276483270593,23.081005837785373]]],[[[120.08221515693691,23.25487410284871],[120.08119402666534,23.25760852266826],[120.08376799439225,23.263791218850525],[120.08474245799685,23.281749935134982],[120.08724492716932,23.292282738894944],[120.08953965616142,23.294349953070277],[120.09098712184465,23.290630361119543],[120.08545713209341,23.257357872154532],[120.08221515693691,23.25487410284871]]],[[[120.04707288472949,23.136299306273393],[120.04359333154893,23.136527815221378],[120.04258729105959,23.138152169989617],[120.0475850067793,23.14666440668207],[120.04863206683719,23.164526521729947],[120.05231014220966,23.170920356699135],[120.05505658866389,23.17098308157773],[120.05176801400913,23.160375646484887],[120.0532665889667,23.153968296952456],[120.04707288472949,23.136299306273393]]],[[[119.51755980204211,23.361221946498],[119.51456703128092,23.362101217467018],[119.51234011678385,23.365363913366057],[119.51276208818447,23.367426482836482],[119.5182552967557,23.370625495769588],[119.52443304793218,23.3713303683847],[119.52766414145148,23.373830412426283],[119.53063609232399,23.374060620292315],[119.53561763777746,23.369028711886784],[119.53445761348463,23.367253884458883],[119.52222672470037,23.36601207150858],[119.51755980204211,23.361221946498]]],[[[119.31452518282791,23.39629586485977],[119.30755168080296,23.39928399624093],[119.30747409817064,23.400677676086936],[119.31072621609226,23.402719605255893],[119.31094683333063,23.40729921141742],[119.31665944632852,23.41195271182941],[119.31892755338134,23.406385135673037],[119.32336302250833,23.405958758840672],[119.32461589480849,23.40394217595023],[119.31866234677098,23.40088960345715],[119.31671906055874,23.397192471356636],[119.31452518282791,23.39629586485977]]],[[[119.60651768256386,23.62042071627802],[119.6028441707897,23.61273167772798],[119.59662717289756,23.610652536184595],[119.59392741207465,23.613426957295513],[119.59171144876534,23.61244663380393],[119.58915241832736,23.61363425536494],[119.58889506498787,23.61634326877157],[119.59267148218453,23.616644436060376],[119.5966218030402,23.6205158611778],[119.60239405590201,23.62164340491644],[119.60651768256386,23.62042071627802]]],[[[119.60961218568245,23.244141122522986],[119.60561094525862,23.24479686339638],[119.60393518386354,23.24780147314945],[119.6031549128331,23.254002306768673],[119.60562498726651,23.255408049531823],[119.613331443491,23.25469200460477],[119.61601899044615,23.247576277431907],[119.60961218568245,23.244141122522986]]],[[[120.07498010182132,23.234499434796835],[120.07718414727161,23.231223366332223],[120.07297172627493,23.21317855467179],[120.06994454728674,23.20900045841887],[120.06954085714412,23.2143240360241],[120.07498010182132,23.234499434796835]]],[[[122.09468800623584,25.489913356367023],[122.09781535753679,25.4899646700948],[122.10220860760609,25.487696873079145],[122.10539168037405,25.484886639606284],[122.10473033407133,25.481956158950624],[122.10099094720435,25.480806956273753],[122.09788588051259,25.48139630376432],[122.09599062776991,25.482527926798642],[122.0940708573479,25.488263972826328],[122.09468800623584,25.489913356367023]]],[[[120.02782598679647,23.057416664854415],[120.02633382242894,23.065672945398944],[120.02691028723736,23.07344362717998],[120.03136380326715,23.071410471504056],[120.03187072925738,23.069119068005143],[120.0310751238444,23.057591326653544],[120.02782598679647,23.057416664854415]]],[[[120.10918590434159,23.321132614873836],[120.11045032384664,23.33424488702188],[120.11270487578985,23.34084166962909],[120.11444871803451,23.34132646749085],[120.1128505817218,23.32438491817939],[120.11118668186758,23.321395364993773],[120.10918590434159,23.321132614873836]]],[[[120.05880101480122,23.186789154944954],[120.05725854242976,23.188121812128077],[120.05833073080441,23.191106613484525],[120.06599200149442,23.203940746292446],[120.06749052198056,23.202337336051865],[120.06629302942864,23.19918616188354],[120.06147445078189,23.18880221275619],[120.05880101480122,23.186789154944954]]],[[[120.17043202708363,23.740758756712278],[120.17016573022026,23.74688369315023],[120.17568388625902,23.75170691410062],[120.17863973093158,23.751738353523642],[120.1769131798812,23.747839646035224],[120.17844017012058,23.74577335515577],[120.17043202708363,23.740758756712278]]],[[[120.10793239217517,23.314666719850308],[120.10669380613116,23.30829086277692],[120.10112370188622,23.30116020427436],[120.09971976500444,23.302749647806813],[120.10267149408567,23.309430365213636],[120.10793239217517,23.314666719850308]]]]}}]}
